<?xml version="1.0" encoding="UTF-8"?>
<gpx version="1.1" creator="Camberas" xmlns="http://www.topografix.com/GPX/1/1">
  <metadata>
    <name>Logrono - Santander por Ramales de la Victoria</name>
    <desc>Coche por carreteras convencionales. 320.5 km, aprox. 10.0 h</desc>
  </metadata>
  <wpt lat="42.465" lon="-2.4456"><name>Logrono</name></wpt>
  <wpt lat="42.4703" lon="-2.5686"><name>Fuenmayor</name></wpt>
  <wpt lat="42.4844" lon="-2.6472"><name>Cenicero</name></wpt>
  <wpt lat="42.4986" lon="-2.7519"><name>San Asensio</name></wpt>
  <wpt lat="42.5417" lon="-2.7794"><name>Briones</name></wpt>
  <wpt lat="42.5772" lon="-2.8471"><name>Haro</name></wpt>
  <wpt lat="42.6866" lon="-2.9463"><name>Miranda de Ebro</name></wpt>
  <wpt lat="42.7414" lon="-3.0742"><name>Bozoo</name></wpt>
  <wpt lat="42.8106" lon="-3.3903"><name>Trespaderne</name></wpt>
  <wpt lat="42.9297" lon="-3.4869"><name>Medina de Pomar</name></wpt>
  <wpt lat="43.1097" lon="-3.3897"><name>Villasana de Mena</name></wpt>
  <wpt lat="43.159" lon="-3.439"><name>Puerto de Los Tornos</name></wpt>
  <wpt lat="43.2564" lon="-3.4536"><name>Ramales de la Victoria</name></wpt>
  <wpt lat="43.3444" lon="-3.4128"><name>Ampuero</name></wpt>
  <wpt lat="43.3906" lon="-3.4519"><name>Colindres</name></wpt>
  <wpt lat="43.403" lon="-3.47"><name>Treto</name></wpt>
  <wpt lat="43.396" lon="-3.506"><name>Barcena de Cicero</name></wpt>
  <wpt lat="43.421" lon="-3.551"><name>Beranga</name></wpt>
  <wpt lat="43.403" lon="-3.561"><name>Gama</name></wpt>
  <wpt lat="43.388" lon="-3.626"><name>Praves</name></wpt>
  <wpt lat="43.376" lon="-3.669"><name>Hoznayo</name></wpt>
  <wpt lat="43.395" lon="-3.718"><name>Solares</name></wpt>
  <wpt lat="43.4085" lon="-3.753"><name>Heras</name></wpt>
  <wpt lat="43.4045" lon="-3.829"><name>Guarnizo</name></wpt>
  <wpt lat="43.409" lon="-3.84"><name>Muriedas</name></wpt>
  <wpt lat="43.4623" lon="-3.8099"><name>Santander</name></wpt>
  <trk>
    <name>Logrono - Santander por Ramales</name>
    <trkseg>
      <trkpt lat="42.465264" lon="-2.445576"/>
      <trkpt lat="42.465238" lon="-2.447568"/>
      <trkpt lat="42.464263" lon="-2.447674"/>
      <trkpt lat="42.463786" lon="-2.447894"/>
      <trkpt lat="42.463658" lon="-2.448091"/>
      <trkpt lat="42.464849" lon="-2.452914"/>
      <trkpt lat="42.464650" lon="-2.452855"/>
      <trkpt lat="42.462603" lon="-2.453767"/>
      <trkpt lat="42.460036" lon="-2.455550"/>
      <trkpt lat="42.459671" lon="-2.456159"/>
      <trkpt lat="42.459116" lon="-2.456190"/>
      <trkpt lat="42.458034" lon="-2.456912"/>
      <trkpt lat="42.456116" lon="-2.457336"/>
      <trkpt lat="42.455433" lon="-2.458406"/>
      <trkpt lat="42.455892" lon="-2.464500"/>
      <trkpt lat="42.456058" lon="-2.472980"/>
      <trkpt lat="42.455885" lon="-2.475637"/>
      <trkpt lat="42.455274" lon="-2.479173"/>
      <trkpt lat="42.455224" lon="-2.480392"/>
      <trkpt lat="42.455607" lon="-2.482416"/>
      <trkpt lat="42.457088" lon="-2.485480"/>
      <trkpt lat="42.457351" lon="-2.487269"/>
      <trkpt lat="42.457332" lon="-2.488227"/>
      <trkpt lat="42.456175" lon="-2.495603"/>
      <trkpt lat="42.454960" lon="-2.500348"/>
      <trkpt lat="42.454230" lon="-2.502327"/>
      <trkpt lat="42.453663" lon="-2.503187"/>
      <trkpt lat="42.449792" lon="-2.507134"/>
      <trkpt lat="42.448914" lon="-2.508590"/>
      <trkpt lat="42.448563" lon="-2.509586"/>
      <trkpt lat="42.447959" lon="-2.513150"/>
      <trkpt lat="42.447697" lon="-2.514076"/>
      <trkpt lat="42.447191" lon="-2.515180"/>
      <trkpt lat="42.446239" lon="-2.516374"/>
      <trkpt lat="42.442390" lon="-2.519702"/>
      <trkpt lat="42.441713" lon="-2.520601"/>
      <trkpt lat="42.441098" lon="-2.521770"/>
      <trkpt lat="42.440743" lon="-2.522745"/>
      <trkpt lat="42.440420" lon="-2.524243"/>
      <trkpt lat="42.440006" lon="-2.528323"/>
      <trkpt lat="42.438937" lon="-2.534377"/>
      <trkpt lat="42.438931" lon="-2.536201"/>
      <trkpt lat="42.439647" lon="-2.539214"/>
      <trkpt lat="42.440018" lon="-2.540136"/>
      <trkpt lat="42.440413" lon="-2.540730"/>
      <trkpt lat="42.440970" lon="-2.541243"/>
      <trkpt lat="42.441673" lon="-2.541555"/>
      <trkpt lat="42.443872" lon="-2.541995"/>
      <trkpt lat="42.444757" lon="-2.542529"/>
      <trkpt lat="42.445471" lon="-2.543509"/>
      <trkpt lat="42.446150" lon="-2.546047"/>
      <trkpt lat="42.446919" lon="-2.547163"/>
      <trkpt lat="42.448717" lon="-2.548598"/>
      <trkpt lat="42.466890" lon="-2.561775"/>
      <trkpt lat="42.467017" lon="-2.561421"/>
      <trkpt lat="42.468097" lon="-2.561288"/>
      <trkpt lat="42.468450" lon="-2.560963"/>
      <trkpt lat="42.470937" lon="-2.564277"/>
      <trkpt lat="42.472969" lon="-2.566700"/>
      <trkpt lat="42.472935" lon="-2.566989"/>
      <trkpt lat="42.472680" lon="-2.566985"/>
      <trkpt lat="42.472335" lon="-2.567587"/>
      <trkpt lat="42.471888" lon="-2.567971"/>
      <trkpt lat="42.469745" lon="-2.571651"/>
      <trkpt lat="42.469473" lon="-2.570568"/>
      <trkpt lat="42.469431" lon="-2.568564"/>
      <trkpt lat="42.468799" lon="-2.567046"/>
      <trkpt lat="42.468579" lon="-2.566947"/>
      <trkpt lat="42.467513" lon="-2.567080"/>
      <trkpt lat="42.466416" lon="-2.566658"/>
      <trkpt lat="42.465421" lon="-2.566891"/>
      <trkpt lat="42.465000" lon="-2.566858"/>
      <trkpt lat="42.464066" lon="-2.567661"/>
      <trkpt lat="42.461260" lon="-2.574171"/>
      <trkpt lat="42.458400" lon="-2.578478"/>
      <trkpt lat="42.457891" lon="-2.579594"/>
      <trkpt lat="42.457857" lon="-2.580498"/>
      <trkpt lat="42.458170" lon="-2.581565"/>
      <trkpt lat="42.461218" lon="-2.587845"/>
      <trkpt lat="42.461658" lon="-2.588983"/>
      <trkpt lat="42.468068" lon="-2.614842"/>
      <trkpt lat="42.468089" lon="-2.615619"/>
      <trkpt lat="42.467912" lon="-2.616362"/>
      <trkpt lat="42.467638" lon="-2.616895"/>
      <trkpt lat="42.466510" lon="-2.618109"/>
      <trkpt lat="42.466206" lon="-2.618891"/>
      <trkpt lat="42.466097" lon="-2.620063"/>
      <trkpt lat="42.466284" lon="-2.621295"/>
      <trkpt lat="42.466759" lon="-2.621950"/>
      <trkpt lat="42.468373" lon="-2.623207"/>
      <trkpt lat="42.469182" lon="-2.624310"/>
      <trkpt lat="42.470013" lon="-2.626576"/>
      <trkpt lat="42.470892" lon="-2.630372"/>
      <trkpt lat="42.471469" lon="-2.630568"/>
      <trkpt lat="42.472492" lon="-2.631375"/>
      <trkpt lat="42.478789" lon="-2.634869"/>
      <trkpt lat="42.479840" lon="-2.635980"/>
      <trkpt lat="42.480400" lon="-2.637446"/>
      <trkpt lat="42.480976" lon="-2.640324"/>
      <trkpt lat="42.480489" lon="-2.642289"/>
      <trkpt lat="42.480996" lon="-2.641053"/>
      <trkpt lat="42.481389" lon="-2.640628"/>
      <trkpt lat="42.482130" lon="-2.640591"/>
      <trkpt lat="42.483129" lon="-2.641332"/>
      <trkpt lat="42.482902" lon="-2.641784"/>
      <trkpt lat="42.482699" lon="-2.643220"/>
      <trkpt lat="42.482615" lon="-2.646133"/>
      <trkpt lat="42.482772" lon="-2.647359"/>
      <trkpt lat="42.483784" lon="-2.651581"/>
      <trkpt lat="42.483452" lon="-2.651616"/>
      <trkpt lat="42.483239" lon="-2.651473"/>
      <trkpt lat="42.482676" lon="-2.649447"/>
      <trkpt lat="42.482032" lon="-2.649738"/>
      <trkpt lat="42.481808" lon="-2.649723"/>
      <trkpt lat="42.481865" lon="-2.649865"/>
      <trkpt lat="42.483403" lon="-2.652825"/>
      <trkpt lat="42.484429" lon="-2.655372"/>
      <trkpt lat="42.485015" lon="-2.656504"/>
      <trkpt lat="42.485794" lon="-2.657428"/>
      <trkpt lat="42.487419" lon="-2.658852"/>
      <trkpt lat="42.490035" lon="-2.662350"/>
      <trkpt lat="42.495316" lon="-2.671552"/>
      <trkpt lat="42.496815" lon="-2.676150"/>
      <trkpt lat="42.497086" lon="-2.680080"/>
      <trkpt lat="42.496875" lon="-2.682049"/>
      <trkpt lat="42.497207" lon="-2.683242"/>
      <trkpt lat="42.497647" lon="-2.683757"/>
      <trkpt lat="42.498465" lon="-2.684236"/>
      <trkpt lat="42.500335" lon="-2.684440"/>
      <trkpt lat="42.500891" lon="-2.684725"/>
      <trkpt lat="42.501211" lon="-2.685051"/>
      <trkpt lat="42.505567" lon="-2.692662"/>
      <trkpt lat="42.506171" lon="-2.693933"/>
      <trkpt lat="42.507706" lon="-2.700323"/>
      <trkpt lat="42.510518" lon="-2.719863"/>
      <trkpt lat="42.511158" lon="-2.730659"/>
      <trkpt lat="42.511638" lon="-2.736064"/>
      <trkpt lat="42.511949" lon="-2.737385"/>
      <trkpt lat="42.512441" lon="-2.738100"/>
      <trkpt lat="42.512834" lon="-2.738257"/>
      <trkpt lat="42.513383" lon="-2.738018"/>
      <trkpt lat="42.513565" lon="-2.738240"/>
      <trkpt lat="42.512614" lon="-2.739967"/>
      <trkpt lat="42.512547" lon="-2.740661"/>
      <trkpt lat="42.512163" lon="-2.741202"/>
      <trkpt lat="42.512099" lon="-2.742551"/>
      <trkpt lat="42.512562" lon="-2.744750"/>
      <trkpt lat="42.512454" lon="-2.745510"/>
      <trkpt lat="42.511910" lon="-2.746381"/>
      <trkpt lat="42.510900" lon="-2.746748"/>
      <trkpt lat="42.509009" lon="-2.746952"/>
      <trkpt lat="42.507421" lon="-2.747738"/>
      <trkpt lat="42.498195" lon="-2.750380"/>
      <trkpt lat="42.497291" lon="-2.750147"/>
      <trkpt lat="42.496892" lon="-2.749838"/>
      <trkpt lat="42.496273" lon="-2.750704"/>
      <trkpt lat="42.496696" lon="-2.751909"/>
      <trkpt lat="42.496860" lon="-2.752048"/>
      <trkpt lat="42.498798" lon="-2.752479"/>
      <trkpt lat="42.498979" lon="-2.752061"/>
      <trkpt lat="42.499224" lon="-2.751948"/>
      <trkpt lat="42.499690" lon="-2.751372"/>
      <trkpt lat="42.499974" lon="-2.751390"/>
      <trkpt lat="42.500347" lon="-2.751151"/>
      <trkpt lat="42.499800" lon="-2.749909"/>
      <trkpt lat="42.506361" lon="-2.748041"/>
      <trkpt lat="42.506632" lon="-2.747669"/>
      <trkpt lat="42.507067" lon="-2.747728"/>
      <trkpt lat="42.507531" lon="-2.747623"/>
      <trkpt lat="42.509009" lon="-2.746952"/>
      <trkpt lat="42.510900" lon="-2.746748"/>
      <trkpt lat="42.511855" lon="-2.746321"/>
      <trkpt lat="42.512346" lon="-2.745597"/>
      <trkpt lat="42.512500" lon="-2.744828"/>
      <trkpt lat="42.512081" lon="-2.742364"/>
      <trkpt lat="42.512178" lon="-2.740512"/>
      <trkpt lat="42.512386" lon="-2.739551"/>
      <trkpt lat="42.512125" lon="-2.737943"/>
      <trkpt lat="42.512638" lon="-2.739017"/>
      <trkpt lat="42.516171" lon="-2.744318"/>
      <trkpt lat="42.523012" lon="-2.750429"/>
      <trkpt lat="42.528162" lon="-2.758935"/>
      <trkpt lat="42.532166" lon="-2.764490"/>
      <trkpt lat="42.540361" lon="-2.781987"/>
      <trkpt lat="42.540630" lon="-2.782151"/>
      <trkpt lat="42.541107" lon="-2.781272"/>
      <trkpt lat="42.541064" lon="-2.780847"/>
      <trkpt lat="42.540641" lon="-2.779876"/>
      <trkpt lat="42.540873" lon="-2.779271"/>
      <trkpt lat="42.541177" lon="-2.781626"/>
      <trkpt lat="42.540764" lon="-2.781873"/>
      <trkpt lat="42.540479" lon="-2.782452"/>
      <trkpt lat="42.541601" lon="-2.785742"/>
      <trkpt lat="42.541957" lon="-2.788099"/>
      <trkpt lat="42.542267" lon="-2.788888"/>
      <trkpt lat="42.543379" lon="-2.790726"/>
      <trkpt lat="42.547434" lon="-2.799817"/>
      <trkpt lat="42.548445" lon="-2.804300"/>
      <trkpt lat="42.549097" lon="-2.808624"/>
      <trkpt lat="42.548888" lon="-2.815559"/>
      <trkpt lat="42.548802" lon="-2.816623"/>
      <trkpt lat="42.548485" lon="-2.817969"/>
      <trkpt lat="42.547461" lon="-2.820343"/>
      <trkpt lat="42.547206" lon="-2.821252"/>
      <trkpt lat="42.547068" lon="-2.823170"/>
      <trkpt lat="42.547584" lon="-2.826079"/>
      <trkpt lat="42.548603" lon="-2.830544"/>
      <trkpt lat="42.549338" lon="-2.832071"/>
      <trkpt lat="42.550395" lon="-2.833277"/>
      <trkpt lat="42.551156" lon="-2.833696"/>
      <trkpt lat="42.553882" lon="-2.834585"/>
      <trkpt lat="42.556175" lon="-2.835542"/>
      <trkpt lat="42.562633" lon="-2.838915"/>
      <trkpt lat="42.563883" lon="-2.839171"/>
      <trkpt lat="42.571377" lon="-2.839289"/>
      <trkpt lat="42.572255" lon="-2.839400"/>
      <trkpt lat="42.573315" lon="-2.839869"/>
      <trkpt lat="42.582761" lon="-2.845251"/>
      <trkpt lat="42.583655" lon="-2.845522"/>
      <trkpt lat="42.584368" lon="-2.845555"/>
      <trkpt lat="42.584540" lon="-2.845421"/>
      <trkpt lat="42.584708" lon="-2.844775"/>
      <trkpt lat="42.584848" lon="-2.844643"/>
      <trkpt lat="42.585084" lon="-2.844658"/>
      <trkpt lat="42.585270" lon="-2.845012"/>
      <trkpt lat="42.585274" lon="-2.845890"/>
      <trkpt lat="42.584649" lon="-2.847397"/>
      <trkpt lat="42.583281" lon="-2.847888"/>
      <trkpt lat="42.582584" lon="-2.847566"/>
      <trkpt lat="42.581914" lon="-2.846632"/>
      <trkpt lat="42.580801" lon="-2.848255"/>
      <trkpt lat="42.580148" lon="-2.849849"/>
      <trkpt lat="42.579134" lon="-2.850659"/>
      <trkpt lat="42.578986" lon="-2.850652"/>
      <trkpt lat="42.577852" lon="-2.849615"/>
      <trkpt lat="42.577203" lon="-2.847068"/>
      <trkpt lat="42.576979" lon="-2.847151"/>
      <trkpt lat="42.577019" lon="-2.849268"/>
      <trkpt lat="42.576156" lon="-2.851120"/>
      <trkpt lat="42.576523" lon="-2.851444"/>
      <trkpt lat="42.577240" lon="-2.850974"/>
      <trkpt lat="42.577673" lon="-2.849805"/>
      <trkpt lat="42.577822" lon="-2.849671"/>
      <trkpt lat="42.578031" lon="-2.849708"/>
      <trkpt lat="42.579019" lon="-2.850664"/>
      <trkpt lat="42.580082" lon="-2.849935"/>
      <trkpt lat="42.580681" lon="-2.848482"/>
      <trkpt lat="42.581715" lon="-2.846812"/>
      <trkpt lat="42.581778" lon="-2.846145"/>
      <trkpt lat="42.581908" lon="-2.845969"/>
      <trkpt lat="42.582091" lon="-2.845948"/>
      <trkpt lat="42.582241" lon="-2.846092"/>
      <trkpt lat="42.582156" lon="-2.846958"/>
      <trkpt lat="42.582636" lon="-2.847598"/>
      <trkpt lat="42.583391" lon="-2.847884"/>
      <trkpt lat="42.584589" lon="-2.847456"/>
      <trkpt lat="42.584947" lon="-2.846841"/>
      <trkpt lat="42.585288" lon="-2.845799"/>
      <trkpt lat="42.585234" lon="-2.844864"/>
      <trkpt lat="42.585084" lon="-2.844658"/>
      <trkpt lat="42.584848" lon="-2.844643"/>
      <trkpt lat="42.584663" lon="-2.844881"/>
      <trkpt lat="42.584716" lon="-2.845381"/>
      <trkpt lat="42.584912" lon="-2.845480"/>
      <trkpt lat="42.585513" lon="-2.845307"/>
      <trkpt lat="42.591293" lon="-2.843366"/>
      <trkpt lat="42.596735" lon="-2.841053"/>
      <trkpt lat="42.597806" lon="-2.841012"/>
      <trkpt lat="42.599746" lon="-2.841445"/>
      <trkpt lat="42.600903" lon="-2.841345"/>
      <trkpt lat="42.601887" lon="-2.840915"/>
      <trkpt lat="42.604304" lon="-2.839306"/>
      <trkpt lat="42.605316" lon="-2.838947"/>
      <trkpt lat="42.606183" lon="-2.838899"/>
      <trkpt lat="42.608291" lon="-2.839286"/>
      <trkpt lat="42.610269" lon="-2.839293"/>
      <trkpt lat="42.611016" lon="-2.839543"/>
      <trkpt lat="42.611757" lon="-2.840250"/>
      <trkpt lat="42.612555" lon="-2.841884"/>
      <trkpt lat="42.613076" lon="-2.842601"/>
      <trkpt lat="42.614606" lon="-2.843705"/>
      <trkpt lat="42.615915" lon="-2.845391"/>
      <trkpt lat="42.616665" lon="-2.845916"/>
      <trkpt lat="42.617200" lon="-2.846099"/>
      <trkpt lat="42.618001" lon="-2.846005"/>
      <trkpt lat="42.618606" lon="-2.845760"/>
      <trkpt lat="42.620274" lon="-2.844611"/>
      <trkpt lat="42.621824" lon="-2.843744"/>
      <trkpt lat="42.623413" lon="-2.842253"/>
      <trkpt lat="42.624203" lon="-2.841793"/>
      <trkpt lat="42.627058" lon="-2.840846"/>
      <trkpt lat="42.627873" lon="-2.840754"/>
      <trkpt lat="42.628408" lon="-2.840856"/>
      <trkpt lat="42.629975" lon="-2.841867"/>
      <trkpt lat="42.631278" lon="-2.843340"/>
      <trkpt lat="42.637716" lon="-2.853962"/>
      <trkpt lat="42.638931" lon="-2.856628"/>
      <trkpt lat="42.640392" lon="-2.861546"/>
      <trkpt lat="42.641759" lon="-2.864978"/>
      <trkpt lat="42.642578" lon="-2.867518"/>
      <trkpt lat="42.643363" lon="-2.868631"/>
      <trkpt lat="42.650473" lon="-2.873233"/>
      <trkpt lat="42.651672" lon="-2.874137"/>
      <trkpt lat="42.653129" lon="-2.875752"/>
      <trkpt lat="42.656075" lon="-2.880522"/>
      <trkpt lat="42.656740" lon="-2.881406"/>
      <trkpt lat="42.658104" lon="-2.882722"/>
      <trkpt lat="42.659218" lon="-2.883448"/>
      <trkpt lat="42.660351" lon="-2.883940"/>
      <trkpt lat="42.661824" lon="-2.884271"/>
      <trkpt lat="42.665359" lon="-2.884270"/>
      <trkpt lat="42.670444" lon="-2.884944"/>
      <trkpt lat="42.672638" lon="-2.884667"/>
      <trkpt lat="42.672938" lon="-2.884174"/>
      <trkpt lat="42.672761" lon="-2.883549"/>
      <trkpt lat="42.672483" lon="-2.883464"/>
      <trkpt lat="42.672181" lon="-2.883729"/>
      <trkpt lat="42.671770" lon="-2.885769"/>
      <trkpt lat="42.671771" lon="-2.886198"/>
      <trkpt lat="42.672032" lon="-2.886822"/>
      <trkpt lat="42.671917" lon="-2.887348"/>
      <trkpt lat="42.672097" lon="-2.888290"/>
      <trkpt lat="42.672047" lon="-2.889522"/>
      <trkpt lat="42.672213" lon="-2.890614"/>
      <trkpt lat="42.672870" lon="-2.891988"/>
      <trkpt lat="42.673372" lon="-2.892493"/>
      <trkpt lat="42.675778" lon="-2.894269"/>
      <trkpt lat="42.676256" lon="-2.894847"/>
      <trkpt lat="42.676503" lon="-2.895380"/>
      <trkpt lat="42.677009" lon="-2.898003"/>
      <trkpt lat="42.678922" lon="-2.905252"/>
      <trkpt lat="42.679446" lon="-2.906058"/>
      <trkpt lat="42.679380" lon="-2.907053"/>
      <trkpt lat="42.683978" lon="-2.924925"/>
      <trkpt lat="42.684948" lon="-2.929329"/>
      <trkpt lat="42.685468" lon="-2.930994"/>
      <trkpt lat="42.685710" lon="-2.931108"/>
      <trkpt lat="42.685623" lon="-2.931445"/>
      <trkpt lat="42.686243" lon="-2.933225"/>
      <trkpt lat="42.686457" lon="-2.933364"/>
      <trkpt lat="42.686387" lon="-2.933637"/>
      <trkpt lat="42.686569" lon="-2.934249"/>
      <trkpt lat="42.688411" lon="-2.939760"/>
      <trkpt lat="42.688559" lon="-2.939907"/>
      <trkpt lat="42.688537" lon="-2.940162"/>
      <trkpt lat="42.689372" lon="-2.942659"/>
      <trkpt lat="42.689504" lon="-2.942728"/>
      <trkpt lat="42.688912" lon="-2.945058"/>
      <trkpt lat="42.688295" lon="-2.946184"/>
      <trkpt lat="42.687619" lon="-2.946947"/>
      <trkpt lat="42.686710" lon="-2.947613"/>
      <trkpt lat="42.685638" lon="-2.947914"/>
      <trkpt lat="42.685307" lon="-2.948238"/>
      <trkpt lat="42.685196" lon="-2.948201"/>
      <trkpt lat="42.685383" lon="-2.947781"/>
      <trkpt lat="42.686406" lon="-2.947679"/>
      <trkpt lat="42.687846" lon="-2.946656"/>
      <trkpt lat="42.688182" lon="-2.948203"/>
      <trkpt lat="42.687079" lon="-2.950228"/>
      <trkpt lat="42.688550" lon="-2.951769"/>
      <trkpt lat="42.688817" lon="-2.951916"/>
      <trkpt lat="42.689040" lon="-2.951685"/>
      <trkpt lat="42.689465" lon="-2.950709"/>
      <trkpt lat="42.690769" lon="-2.946227"/>
      <trkpt lat="42.690896" lon="-2.946069"/>
      <trkpt lat="42.691096" lon="-2.946096"/>
      <trkpt lat="42.691297" lon="-2.947057"/>
      <trkpt lat="42.693922" lon="-2.953813"/>
      <trkpt lat="42.694348" lon="-2.954254"/>
      <trkpt lat="42.694419" lon="-2.954967"/>
      <trkpt lat="42.695266" lon="-2.956972"/>
      <trkpt lat="42.696192" lon="-2.958747"/>
      <trkpt lat="42.697149" lon="-2.960100"/>
      <trkpt lat="42.699361" lon="-2.962494"/>
      <trkpt lat="42.699946" lon="-2.962682"/>
      <trkpt lat="42.700171" lon="-2.963436"/>
      <trkpt lat="42.704564" lon="-2.968700"/>
      <trkpt lat="42.708094" lon="-2.973917"/>
      <trkpt lat="42.710358" lon="-2.976454"/>
      <trkpt lat="42.717560" lon="-2.983615"/>
      <trkpt lat="42.718013" lon="-2.983887"/>
      <trkpt lat="42.722652" lon="-2.985555"/>
      <trkpt lat="42.724365" lon="-2.986837"/>
      <trkpt lat="42.725929" lon="-2.988562"/>
      <trkpt lat="42.726223" lon="-2.989124"/>
      <trkpt lat="42.727139" lon="-2.992488"/>
      <trkpt lat="42.729749" lon="-2.997648"/>
      <trkpt lat="42.732298" lon="-3.001914"/>
      <trkpt lat="42.736099" lon="-3.007667"/>
      <trkpt lat="42.738747" lon="-3.011163"/>
      <trkpt lat="42.741603" lon="-3.016453"/>
      <trkpt lat="42.741786" lon="-3.016903"/>
      <trkpt lat="42.742411" lon="-3.020158"/>
      <trkpt lat="42.743317" lon="-3.023443"/>
      <trkpt lat="42.745297" lon="-3.027407"/>
      <trkpt lat="42.745833" lon="-3.027939"/>
      <trkpt lat="42.745996" lon="-3.028286"/>
      <trkpt lat="42.747114" lon="-3.034871"/>
      <trkpt lat="42.747560" lon="-3.036287"/>
      <trkpt lat="42.748003" lon="-3.036990"/>
      <trkpt lat="42.751277" lon="-3.040640"/>
      <trkpt lat="42.751042" lon="-3.047284"/>
      <trkpt lat="42.750864" lon="-3.047733"/>
      <trkpt lat="42.750338" lon="-3.047704"/>
      <trkpt lat="42.749912" lon="-3.047859"/>
      <trkpt lat="42.749002" lon="-3.049758"/>
      <trkpt lat="42.748397" lon="-3.050033"/>
      <trkpt lat="42.747745" lon="-3.049865"/>
      <trkpt lat="42.747022" lon="-3.049219"/>
      <trkpt lat="42.745884" lon="-3.047601"/>
      <trkpt lat="42.744653" lon="-3.046859"/>
      <trkpt lat="42.743190" lon="-3.055461"/>
      <trkpt lat="42.744646" lon="-3.060907"/>
      <trkpt lat="42.744046" lon="-3.064365"/>
      <trkpt lat="42.743890" lon="-3.066310"/>
      <trkpt lat="42.742597" lon="-3.072178"/>
      <trkpt lat="42.742019" lon="-3.076926"/>
      <trkpt lat="42.741575" lon="-3.078050"/>
      <trkpt lat="42.740937" lon="-3.079025"/>
      <trkpt lat="42.740811" lon="-3.080186"/>
      <trkpt lat="42.740488" lon="-3.080710"/>
      <trkpt lat="42.740729" lon="-3.080999"/>
      <trkpt lat="42.740937" lon="-3.079025"/>
      <trkpt lat="42.741575" lon="-3.078050"/>
      <trkpt lat="42.742019" lon="-3.076926"/>
      <trkpt lat="42.742597" lon="-3.072178"/>
      <trkpt lat="42.743890" lon="-3.066310"/>
      <trkpt lat="42.744046" lon="-3.064365"/>
      <trkpt lat="42.744646" lon="-3.060907"/>
      <trkpt lat="42.743190" lon="-3.055461"/>
      <trkpt lat="42.744653" lon="-3.046859"/>
      <trkpt lat="42.745884" lon="-3.047601"/>
      <trkpt lat="42.747022" lon="-3.049219"/>
      <trkpt lat="42.747624" lon="-3.049779"/>
      <trkpt lat="42.748333" lon="-3.050036"/>
      <trkpt lat="42.749002" lon="-3.049758"/>
      <trkpt lat="42.749739" lon="-3.048121"/>
      <trkpt lat="42.750083" lon="-3.047755"/>
      <trkpt lat="42.750695" lon="-3.047697"/>
      <trkpt lat="42.752063" lon="-3.048062"/>
      <trkpt lat="42.754462" lon="-3.047861"/>
      <trkpt lat="42.756574" lon="-3.047183"/>
      <trkpt lat="42.756836" lon="-3.046875"/>
      <trkpt lat="42.757191" lon="-3.046978"/>
      <trkpt lat="42.760902" lon="-3.045877"/>
      <trkpt lat="42.761827" lon="-3.045799"/>
      <trkpt lat="42.762921" lon="-3.045919"/>
      <trkpt lat="42.764179" lon="-3.046294"/>
      <trkpt lat="42.765435" lon="-3.046893"/>
      <trkpt lat="42.766476" lon="-3.047019"/>
      <trkpt lat="42.765789" lon="-3.051583"/>
      <trkpt lat="42.763365" lon="-3.063609"/>
      <trkpt lat="42.763047" lon="-3.068186"/>
      <trkpt lat="42.763286" lon="-3.069811"/>
      <trkpt lat="42.763560" lon="-3.070625"/>
      <trkpt lat="42.767308" lon="-3.076352"/>
      <trkpt lat="42.767670" lon="-3.077718"/>
      <trkpt lat="42.767619" lon="-3.080507"/>
      <trkpt lat="42.767276" lon="-3.081322"/>
      <trkpt lat="42.766467" lon="-3.081934"/>
      <trkpt lat="42.765056" lon="-3.082237"/>
      <trkpt lat="42.762961" lon="-3.082332"/>
      <trkpt lat="42.761318" lon="-3.082603"/>
      <trkpt lat="42.760323" lon="-3.083744"/>
      <trkpt lat="42.759334" lon="-3.084128"/>
      <trkpt lat="42.759094" lon="-3.084334"/>
      <trkpt lat="42.758883" lon="-3.084717"/>
      <trkpt lat="42.758796" lon="-3.085339"/>
      <trkpt lat="42.758953" lon="-3.085932"/>
      <trkpt lat="42.759897" lon="-3.087347"/>
      <trkpt lat="42.761202" lon="-3.088077"/>
      <trkpt lat="42.761860" lon="-3.088960"/>
      <trkpt lat="42.763700" lon="-3.089534"/>
      <trkpt lat="42.765224" lon="-3.090406"/>
      <trkpt lat="42.765699" lon="-3.091663"/>
      <trkpt lat="42.766629" lon="-3.094933"/>
      <trkpt lat="42.767440" lon="-3.095539"/>
      <trkpt lat="42.767682" lon="-3.095976"/>
      <trkpt lat="42.767612" lon="-3.097380"/>
      <trkpt lat="42.768004" lon="-3.098880"/>
      <trkpt lat="42.768125" lon="-3.100477"/>
      <trkpt lat="42.767857" lon="-3.102541"/>
      <trkpt lat="42.767281" lon="-3.103107"/>
      <trkpt lat="42.766742" lon="-3.104221"/>
      <trkpt lat="42.765679" lon="-3.105138"/>
      <trkpt lat="42.765362" lon="-3.105626"/>
      <trkpt lat="42.765400" lon="-3.108226"/>
      <trkpt lat="42.764893" lon="-3.109571"/>
      <trkpt lat="42.764736" lon="-3.110359"/>
      <trkpt lat="42.763190" lon="-3.112196"/>
      <trkpt lat="42.762955" lon="-3.112810"/>
      <trkpt lat="42.762288" lon="-3.113837"/>
      <trkpt lat="42.761771" lon="-3.114262"/>
      <trkpt lat="42.760682" lon="-3.114820"/>
      <trkpt lat="42.760261" lon="-3.115407"/>
      <trkpt lat="42.760086" lon="-3.115986"/>
      <trkpt lat="42.759851" lon="-3.117534"/>
      <trkpt lat="42.759878" lon="-3.118760"/>
      <trkpt lat="42.760061" lon="-3.119684"/>
      <trkpt lat="42.760586" lon="-3.120180"/>
      <trkpt lat="42.760693" lon="-3.120541"/>
      <trkpt lat="42.759580" lon="-3.123412"/>
      <trkpt lat="42.759504" lon="-3.124946"/>
      <trkpt lat="42.760151" lon="-3.126918"/>
      <trkpt lat="42.759496" lon="-3.129561"/>
      <trkpt lat="42.758869" lon="-3.130505"/>
      <trkpt lat="42.758892" lon="-3.130923"/>
      <trkpt lat="42.759336" lon="-3.131875"/>
      <trkpt lat="42.759197" lon="-3.134410"/>
      <trkpt lat="42.758770" lon="-3.137733"/>
      <trkpt lat="42.758030" lon="-3.139478"/>
      <trkpt lat="42.757809" lon="-3.141195"/>
      <trkpt lat="42.757629" lon="-3.141725"/>
      <trkpt lat="42.757639" lon="-3.144491"/>
      <trkpt lat="42.757059" lon="-3.148001"/>
      <trkpt lat="42.757198" lon="-3.149334"/>
      <trkpt lat="42.757571" lon="-3.150826"/>
      <trkpt lat="42.758605" lon="-3.153019"/>
      <trkpt lat="42.759166" lon="-3.154647"/>
      <trkpt lat="42.759845" lon="-3.155335"/>
      <trkpt lat="42.760730" lon="-3.157339"/>
      <trkpt lat="42.761036" lon="-3.157574"/>
      <trkpt lat="42.761713" lon="-3.157720"/>
      <trkpt lat="42.762074" lon="-3.158089"/>
      <trkpt lat="42.763060" lon="-3.160935"/>
      <trkpt lat="42.764743" lon="-3.163171"/>
      <trkpt lat="42.765443" lon="-3.165151"/>
      <trkpt lat="42.765368" lon="-3.166126"/>
      <trkpt lat="42.764669" lon="-3.167370"/>
      <trkpt lat="42.764622" lon="-3.168330"/>
      <trkpt lat="42.764963" lon="-3.169361"/>
      <trkpt lat="42.765716" lon="-3.170050"/>
      <trkpt lat="42.766032" lon="-3.170545"/>
      <trkpt lat="42.766434" lon="-3.171983"/>
      <trkpt lat="42.766029" lon="-3.175979"/>
      <trkpt lat="42.765463" lon="-3.178579"/>
      <trkpt lat="42.765454" lon="-3.182033"/>
      <trkpt lat="42.765759" lon="-3.183278"/>
      <trkpt lat="42.766646" lon="-3.185429"/>
      <trkpt lat="42.766989" lon="-3.187540"/>
      <trkpt lat="42.767813" lon="-3.190174"/>
      <trkpt lat="42.767994" lon="-3.192300"/>
      <trkpt lat="42.768591" lon="-3.193139"/>
      <trkpt lat="42.768774" lon="-3.194192"/>
      <trkpt lat="42.769127" lon="-3.194871"/>
      <trkpt lat="42.770145" lon="-3.197925"/>
      <trkpt lat="42.770355" lon="-3.198244"/>
      <trkpt lat="42.770681" lon="-3.198384"/>
      <trkpt lat="42.771427" lon="-3.198038"/>
      <trkpt lat="42.772472" lon="-3.197997"/>
      <trkpt lat="42.773788" lon="-3.198547"/>
      <trkpt lat="42.774173" lon="-3.198499"/>
      <trkpt lat="42.775451" lon="-3.197956"/>
      <trkpt lat="42.776431" lon="-3.198132"/>
      <trkpt lat="42.777264" lon="-3.198967"/>
      <trkpt lat="42.778770" lon="-3.202050"/>
      <trkpt lat="42.780424" lon="-3.208457"/>
      <trkpt lat="42.780307" lon="-3.208983"/>
      <trkpt lat="42.779793" lon="-3.209829"/>
      <trkpt lat="42.779298" lon="-3.212759"/>
      <trkpt lat="42.778606" lon="-3.220596"/>
      <trkpt lat="42.788689" lon="-3.247449"/>
      <trkpt lat="42.788648" lon="-3.248439"/>
      <trkpt lat="42.787149" lon="-3.251349"/>
      <trkpt lat="42.786905" lon="-3.252198"/>
      <trkpt lat="42.786919" lon="-3.252866"/>
      <trkpt lat="42.787530" lon="-3.255809"/>
      <trkpt lat="42.787840" lon="-3.258100"/>
      <trkpt lat="42.787962" lon="-3.260684"/>
      <trkpt lat="42.788303" lon="-3.261825"/>
      <trkpt lat="42.791297" lon="-3.266022"/>
      <trkpt lat="42.791931" lon="-3.266694"/>
      <trkpt lat="42.792483" lon="-3.268274"/>
      <trkpt lat="42.792698" lon="-3.271299"/>
      <trkpt lat="42.792512" lon="-3.272410"/>
      <trkpt lat="42.791727" lon="-3.274391"/>
      <trkpt lat="42.790735" lon="-3.276012"/>
      <trkpt lat="42.790697" lon="-3.277508"/>
      <trkpt lat="42.790969" lon="-3.279065"/>
      <trkpt lat="42.791140" lon="-3.281516"/>
      <trkpt lat="42.789744" lon="-3.285078"/>
      <trkpt lat="42.788387" lon="-3.300059"/>
      <trkpt lat="42.788426" lon="-3.300691"/>
      <trkpt lat="42.790063" lon="-3.306246"/>
      <trkpt lat="42.790607" lon="-3.306298"/>
      <trkpt lat="42.795913" lon="-3.309594"/>
      <trkpt lat="42.796523" lon="-3.311770"/>
      <trkpt lat="42.798035" lon="-3.315269"/>
      <trkpt lat="42.799750" lon="-3.321367"/>
      <trkpt lat="42.802140" lon="-3.324525"/>
      <trkpt lat="42.802845" lon="-3.324850"/>
      <trkpt lat="42.802854" lon="-3.326274"/>
      <trkpt lat="42.802989" lon="-3.326888"/>
      <trkpt lat="42.805136" lon="-3.328528"/>
      <trkpt lat="42.809732" lon="-3.330717"/>
      <trkpt lat="42.811204" lon="-3.332883"/>
      <trkpt lat="42.811402" lon="-3.333769"/>
      <trkpt lat="42.811020" lon="-3.338204"/>
      <trkpt lat="42.810516" lon="-3.340019"/>
      <trkpt lat="42.809719" lon="-3.341379"/>
      <trkpt lat="42.809584" lon="-3.344231"/>
      <trkpt lat="42.810548" lon="-3.349709"/>
      <trkpt lat="42.810854" lon="-3.352266"/>
      <trkpt lat="42.811517" lon="-3.353265"/>
      <trkpt lat="42.812341" lon="-3.357384"/>
      <trkpt lat="42.812249" lon="-3.357718"/>
      <trkpt lat="42.811749" lon="-3.358053"/>
      <trkpt lat="42.811757" lon="-3.358368"/>
      <trkpt lat="42.811995" lon="-3.358695"/>
      <trkpt lat="42.812748" lon="-3.358725"/>
      <trkpt lat="42.812948" lon="-3.358866"/>
      <trkpt lat="42.814195" lon="-3.361316"/>
      <trkpt lat="42.814915" lon="-3.363220"/>
      <trkpt lat="42.815354" lon="-3.365547"/>
      <trkpt lat="42.816131" lon="-3.367211"/>
      <trkpt lat="42.816679" lon="-3.369153"/>
      <trkpt lat="42.819690" lon="-3.372774"/>
      <trkpt lat="42.826887" lon="-3.378252"/>
      <trkpt lat="42.828001" lon="-3.378827"/>
      <trkpt lat="42.832435" lon="-3.379581"/>
      <trkpt lat="42.833176" lon="-3.379820"/>
      <trkpt lat="42.834162" lon="-3.380389"/>
      <trkpt lat="42.834754" lon="-3.381700"/>
      <trkpt lat="42.833711" lon="-3.382376"/>
      <trkpt lat="42.833231" lon="-3.382895"/>
      <trkpt lat="42.832760" lon="-3.382673"/>
      <trkpt lat="42.832320" lon="-3.382869"/>
      <trkpt lat="42.831558" lon="-3.382507"/>
      <trkpt lat="42.831234" lon="-3.382476"/>
      <trkpt lat="42.830978" lon="-3.382263"/>
      <trkpt lat="42.830752" lon="-3.382282"/>
      <trkpt lat="42.829953" lon="-3.382505"/>
      <trkpt lat="42.829427" lon="-3.383172"/>
      <trkpt lat="42.828491" lon="-3.383583"/>
      <trkpt lat="42.827759" lon="-3.383533"/>
      <trkpt lat="42.825113" lon="-3.383978"/>
      <trkpt lat="42.823995" lon="-3.384898"/>
      <trkpt lat="42.822341" lon="-3.385020"/>
      <trkpt lat="42.821336" lon="-3.385342"/>
      <trkpt lat="42.820494" lon="-3.385828"/>
      <trkpt lat="42.819528" lon="-3.385680"/>
      <trkpt lat="42.817858" lon="-3.385955"/>
      <trkpt lat="42.816597" lon="-3.387013"/>
      <trkpt lat="42.815201" lon="-3.387357"/>
      <trkpt lat="42.813868" lon="-3.386976"/>
      <trkpt lat="42.811284" lon="-3.388205"/>
      <trkpt lat="42.810437" lon="-3.388872"/>
      <trkpt lat="42.809684" lon="-3.389156"/>
      <trkpt lat="42.808430" lon="-3.389287"/>
      <trkpt lat="42.807839" lon="-3.388742"/>
      <trkpt lat="42.807446" lon="-3.389348"/>
      <trkpt lat="42.808236" lon="-3.390049"/>
      <trkpt lat="42.807787" lon="-3.390915"/>
      <trkpt lat="42.807919" lon="-3.391369"/>
      <trkpt lat="42.807874" lon="-3.391755"/>
      <trkpt lat="42.809667" lon="-3.393451"/>
      <trkpt lat="42.820484" lon="-3.401085"/>
      <trkpt lat="42.822876" lon="-3.403869"/>
      <trkpt lat="42.832111" lon="-3.410595"/>
      <trkpt lat="42.836979" lon="-3.414382"/>
      <trkpt lat="42.837704" lon="-3.414818"/>
      <trkpt lat="42.839418" lon="-3.415269"/>
      <trkpt lat="42.840424" lon="-3.415895"/>
      <trkpt lat="42.841726" lon="-3.417500"/>
      <trkpt lat="42.842946" lon="-3.418188"/>
      <trkpt lat="42.850245" lon="-3.424366"/>
      <trkpt lat="42.855923" lon="-3.433289"/>
      <trkpt lat="42.856424" lon="-3.433910"/>
      <trkpt lat="42.857173" lon="-3.434367"/>
      <trkpt lat="42.859986" lon="-3.435176"/>
      <trkpt lat="42.860698" lon="-3.435594"/>
      <trkpt lat="42.864233" lon="-3.439278"/>
      <trkpt lat="42.894147" lon="-3.464076"/>
      <trkpt lat="42.900249" lon="-3.470257"/>
      <trkpt lat="42.911884" lon="-3.475841"/>
      <trkpt lat="42.913139" lon="-3.476319"/>
      <trkpt lat="42.916433" lon="-3.476999"/>
      <trkpt lat="42.928685" lon="-3.479032"/>
      <trkpt lat="42.928918" lon="-3.479453"/>
      <trkpt lat="42.929168" lon="-3.481556"/>
      <trkpt lat="42.930519" lon="-3.484403"/>
      <trkpt lat="42.931711" lon="-3.485924"/>
      <trkpt lat="42.932244" lon="-3.486083"/>
      <trkpt lat="42.932386" lon="-3.487181"/>
      <trkpt lat="42.929989" lon="-3.488105"/>
      <trkpt lat="42.929614" lon="-3.486800"/>
      <trkpt lat="42.929845" lon="-3.486792"/>
      <trkpt lat="42.929957" lon="-3.487236"/>
      <trkpt lat="42.931666" lon="-3.486345"/>
      <trkpt lat="42.931711" lon="-3.485924"/>
      <trkpt lat="42.932244" lon="-3.486083"/>
      <trkpt lat="42.956167" lon="-3.481279"/>
      <trkpt lat="42.959876" lon="-3.480473"/>
      <trkpt lat="42.964056" lon="-3.479032"/>
      <trkpt lat="42.964623" lon="-3.479135"/>
      <trkpt lat="42.967901" lon="-3.480424"/>
      <trkpt lat="42.970511" lon="-3.481132"/>
      <trkpt lat="42.971465" lon="-3.481196"/>
      <trkpt lat="42.971822" lon="-3.481095"/>
      <trkpt lat="42.972347" lon="-3.480715"/>
      <trkpt lat="42.972818" lon="-3.480594"/>
      <trkpt lat="42.975751" lon="-3.481125"/>
      <trkpt lat="42.976664" lon="-3.482103"/>
      <trkpt lat="42.978454" lon="-3.482898"/>
      <trkpt lat="42.979894" lon="-3.483980"/>
      <trkpt lat="42.981315" lon="-3.485546"/>
      <trkpt lat="42.981961" lon="-3.487103"/>
      <trkpt lat="42.982302" lon="-3.487442"/>
      <trkpt lat="42.982686" lon="-3.487599"/>
      <trkpt lat="42.983751" lon="-3.487457"/>
      <trkpt lat="42.985006" lon="-3.486602"/>
      <trkpt lat="42.985345" lon="-3.486500"/>
      <trkpt lat="42.988809" lon="-3.486549"/>
      <trkpt lat="42.990178" lon="-3.486282"/>
      <trkpt lat="42.994443" lon="-3.485107"/>
      <trkpt lat="42.996405" lon="-3.484095"/>
      <trkpt lat="42.997297" lon="-3.483839"/>
      <trkpt lat="43.009511" lon="-3.482208"/>
      <trkpt lat="43.015394" lon="-3.483416"/>
      <trkpt lat="43.018488" lon="-3.483454"/>
      <trkpt lat="43.019518" lon="-3.483260"/>
      <trkpt lat="43.020408" lon="-3.483485"/>
      <trkpt lat="43.021204" lon="-3.483414"/>
      <trkpt lat="43.023190" lon="-3.484183"/>
      <trkpt lat="43.024970" lon="-3.484386"/>
      <trkpt lat="43.035453" lon="-3.482557"/>
      <trkpt lat="43.037410" lon="-3.481984"/>
      <trkpt lat="43.037861" lon="-3.481980"/>
      <trkpt lat="43.038491" lon="-3.482227"/>
      <trkpt lat="43.040141" lon="-3.483649"/>
      <trkpt lat="43.040753" lon="-3.483900"/>
      <trkpt lat="43.047733" lon="-3.486103"/>
      <trkpt lat="43.048143" lon="-3.485797"/>
      <trkpt lat="43.048710" lon="-3.485732"/>
      <trkpt lat="43.051415" lon="-3.483808"/>
      <trkpt lat="43.059448" lon="-3.477133"/>
      <trkpt lat="43.059826" lon="-3.476549"/>
      <trkpt lat="43.060378" lon="-3.476510"/>
      <trkpt lat="43.061873" lon="-3.475681"/>
      <trkpt lat="43.067715" lon="-3.473055"/>
      <trkpt lat="43.069372" lon="-3.471505"/>
      <trkpt lat="43.072932" lon="-3.467479"/>
      <trkpt lat="43.079063" lon="-3.459198"/>
      <trkpt lat="43.085897" lon="-3.456216"/>
      <trkpt lat="43.086710" lon="-3.454849"/>
      <trkpt lat="43.087246" lon="-3.454506"/>
      <trkpt lat="43.089843" lon="-3.453894"/>
      <trkpt lat="43.090418" lon="-3.454013"/>
      <trkpt lat="43.091246" lon="-3.454409"/>
      <trkpt lat="43.092013" lon="-3.454438"/>
      <trkpt lat="43.097526" lon="-3.452935"/>
      <trkpt lat="43.097919" lon="-3.452968"/>
      <trkpt lat="43.099203" lon="-3.453617"/>
      <trkpt lat="43.100420" lon="-3.452167"/>
      <trkpt lat="43.100959" lon="-3.450973"/>
      <trkpt lat="43.101549" lon="-3.450417"/>
      <trkpt lat="43.103041" lon="-3.448323"/>
      <trkpt lat="43.104281" lon="-3.445895"/>
      <trkpt lat="43.104778" lon="-3.443606"/>
      <trkpt lat="43.105109" lon="-3.440318"/>
      <trkpt lat="43.105305" lon="-3.439749"/>
      <trkpt lat="43.105332" lon="-3.438861"/>
      <trkpt lat="43.105787" lon="-3.436259"/>
      <trkpt lat="43.106334" lon="-3.434507"/>
      <trkpt lat="43.106932" lon="-3.433456"/>
      <trkpt lat="43.107107" lon="-3.432370"/>
      <trkpt lat="43.107044" lon="-3.431716"/>
      <trkpt lat="43.107581" lon="-3.430572"/>
      <trkpt lat="43.107932" lon="-3.429127"/>
      <trkpt lat="43.108688" lon="-3.427133"/>
      <trkpt lat="43.108814" lon="-3.426228"/>
      <trkpt lat="43.108574" lon="-3.425543"/>
      <trkpt lat="43.109239" lon="-3.424846"/>
      <trkpt lat="43.109824" lon="-3.422675"/>
      <trkpt lat="43.109773" lon="-3.422291"/>
      <trkpt lat="43.109481" lon="-3.421939"/>
      <trkpt lat="43.109439" lon="-3.421566"/>
      <trkpt lat="43.110353" lon="-3.419187"/>
      <trkpt lat="43.110843" lon="-3.417524"/>
      <trkpt lat="43.111391" lon="-3.413978"/>
      <trkpt lat="43.111622" lon="-3.411532"/>
      <trkpt lat="43.112007" lon="-3.410772"/>
      <trkpt lat="43.112545" lon="-3.410125"/>
      <trkpt lat="43.113078" lon="-3.410524"/>
      <trkpt lat="43.113198" lon="-3.410489"/>
      <trkpt lat="43.112928" lon="-3.409613"/>
      <trkpt lat="43.112269" lon="-3.408637"/>
      <trkpt lat="43.112255" lon="-3.408295"/>
      <trkpt lat="43.112549" lon="-3.407979"/>
      <trkpt lat="43.113461" lon="-3.407610"/>
      <trkpt lat="43.114582" lon="-3.404625"/>
      <trkpt lat="43.114442" lon="-3.404560"/>
      <trkpt lat="43.113687" lon="-3.405655"/>
      <trkpt lat="43.112722" lon="-3.406472"/>
      <trkpt lat="43.112566" lon="-3.406431"/>
      <trkpt lat="43.112541" lon="-3.405701"/>
      <trkpt lat="43.112659" lon="-3.405436"/>
      <trkpt lat="43.113116" lon="-3.405080"/>
      <trkpt lat="43.113596" lon="-3.403770"/>
      <trkpt lat="43.113973" lon="-3.403665"/>
      <trkpt lat="43.115002" lon="-3.402480"/>
      <trkpt lat="43.116099" lon="-3.403209"/>
      <trkpt lat="43.116364" lon="-3.403112"/>
      <trkpt lat="43.116366" lon="-3.402806"/>
      <trkpt lat="43.116364" lon="-3.403112"/>
      <trkpt lat="43.116099" lon="-3.403209"/>
      <trkpt lat="43.115002" lon="-3.402480"/>
      <trkpt lat="43.113973" lon="-3.403665"/>
      <trkpt lat="43.113596" lon="-3.403770"/>
      <trkpt lat="43.113116" lon="-3.405080"/>
      <trkpt lat="43.112659" lon="-3.405436"/>
      <trkpt lat="43.112541" lon="-3.405701"/>
      <trkpt lat="43.112566" lon="-3.406431"/>
      <trkpt lat="43.112722" lon="-3.406472"/>
      <trkpt lat="43.113687" lon="-3.405655"/>
      <trkpt lat="43.114442" lon="-3.404560"/>
      <trkpt lat="43.114582" lon="-3.404625"/>
      <trkpt lat="43.113461" lon="-3.407610"/>
      <trkpt lat="43.112549" lon="-3.407979"/>
      <trkpt lat="43.112255" lon="-3.408295"/>
      <trkpt lat="43.112269" lon="-3.408637"/>
      <trkpt lat="43.112928" lon="-3.409613"/>
      <trkpt lat="43.113198" lon="-3.410489"/>
      <trkpt lat="43.113078" lon="-3.410524"/>
      <trkpt lat="43.112545" lon="-3.410125"/>
      <trkpt lat="43.112007" lon="-3.410772"/>
      <trkpt lat="43.111622" lon="-3.411532"/>
      <trkpt lat="43.111391" lon="-3.413978"/>
      <trkpt lat="43.110843" lon="-3.417524"/>
      <trkpt lat="43.110353" lon="-3.419187"/>
      <trkpt lat="43.109439" lon="-3.421566"/>
      <trkpt lat="43.109481" lon="-3.421939"/>
      <trkpt lat="43.109773" lon="-3.422291"/>
      <trkpt lat="43.109824" lon="-3.422675"/>
      <trkpt lat="43.109239" lon="-3.424846"/>
      <trkpt lat="43.108574" lon="-3.425543"/>
      <trkpt lat="43.108814" lon="-3.426228"/>
      <trkpt lat="43.108688" lon="-3.427133"/>
      <trkpt lat="43.107932" lon="-3.429127"/>
      <trkpt lat="43.107581" lon="-3.430572"/>
      <trkpt lat="43.107044" lon="-3.431716"/>
      <trkpt lat="43.107107" lon="-3.432370"/>
      <trkpt lat="43.106932" lon="-3.433456"/>
      <trkpt lat="43.106334" lon="-3.434507"/>
      <trkpt lat="43.105787" lon="-3.436259"/>
      <trkpt lat="43.105332" lon="-3.438861"/>
      <trkpt lat="43.105305" lon="-3.439749"/>
      <trkpt lat="43.105109" lon="-3.440318"/>
      <trkpt lat="43.104778" lon="-3.443606"/>
      <trkpt lat="43.104281" lon="-3.445895"/>
      <trkpt lat="43.103041" lon="-3.448323"/>
      <trkpt lat="43.101549" lon="-3.450417"/>
      <trkpt lat="43.101023" lon="-3.450882"/>
      <trkpt lat="43.100420" lon="-3.452167"/>
      <trkpt lat="43.099771" lon="-3.452899"/>
      <trkpt lat="43.099910" lon="-3.453979"/>
      <trkpt lat="43.101501" lon="-3.454875"/>
      <trkpt lat="43.102590" lon="-3.456302"/>
      <trkpt lat="43.104392" lon="-3.457541"/>
      <trkpt lat="43.105746" lon="-3.459111"/>
      <trkpt lat="43.106715" lon="-3.459645"/>
      <trkpt lat="43.107585" lon="-3.459867"/>
      <trkpt lat="43.108398" lon="-3.459662"/>
      <trkpt lat="43.108885" lon="-3.459198"/>
      <trkpt lat="43.109266" lon="-3.458478"/>
      <trkpt lat="43.109669" lon="-3.456967"/>
      <trkpt lat="43.110190" lon="-3.456183"/>
      <trkpt lat="43.110901" lon="-3.455735"/>
      <trkpt lat="43.112793" lon="-3.455104"/>
      <trkpt lat="43.113669" lon="-3.455109"/>
      <trkpt lat="43.115443" lon="-3.455489"/>
      <trkpt lat="43.116746" lon="-3.456394"/>
      <trkpt lat="43.117268" lon="-3.456572"/>
      <trkpt lat="43.117936" lon="-3.456487"/>
      <trkpt lat="43.119441" lon="-3.455790"/>
      <trkpt lat="43.120115" lon="-3.455651"/>
      <trkpt lat="43.120649" lon="-3.455688"/>
      <trkpt lat="43.121310" lon="-3.455940"/>
      <trkpt lat="43.123099" lon="-3.457225"/>
      <trkpt lat="43.124005" lon="-3.457504"/>
      <trkpt lat="43.125644" lon="-3.457460"/>
      <trkpt lat="43.126867" lon="-3.457285"/>
      <trkpt lat="43.129452" lon="-3.456168"/>
      <trkpt lat="43.132267" lon="-3.456033"/>
      <trkpt lat="43.133108" lon="-3.455823"/>
      <trkpt lat="43.134034" lon="-3.455256"/>
      <trkpt lat="43.135916" lon="-3.453583"/>
      <trkpt lat="43.140902" lon="-3.451651"/>
      <trkpt lat="43.141346" lon="-3.451371"/>
      <trkpt lat="43.142343" lon="-3.450331"/>
      <trkpt lat="43.145358" lon="-3.447960"/>
      <trkpt lat="43.151211" lon="-3.442229"/>
      <trkpt lat="43.152385" lon="-3.439708"/>
      <trkpt lat="43.153162" lon="-3.441543"/>
      <trkpt lat="43.153514" lon="-3.442977"/>
      <trkpt lat="43.153488" lon="-3.443801"/>
      <trkpt lat="43.153842" lon="-3.444762"/>
      <trkpt lat="43.154863" lon="-3.446853"/>
      <trkpt lat="43.155444" lon="-3.447499"/>
      <trkpt lat="43.155635" lon="-3.447907"/>
      <trkpt lat="43.156155" lon="-3.450958"/>
      <trkpt lat="43.156468" lon="-3.452043"/>
      <trkpt lat="43.156821" lon="-3.452524"/>
      <trkpt lat="43.157034" lon="-3.453114"/>
      <trkpt lat="43.157630" lon="-3.453868"/>
      <trkpt lat="43.158646" lon="-3.454766"/>
      <trkpt lat="43.159357" lon="-3.454766"/>
      <trkpt lat="43.159593" lon="-3.454935"/>
      <trkpt lat="43.160052" lon="-3.456293"/>
      <trkpt lat="43.161180" lon="-3.458628"/>
      <trkpt lat="43.161402" lon="-3.459379"/>
      <trkpt lat="43.161890" lon="-3.459673"/>
      <trkpt lat="43.162455" lon="-3.460443"/>
      <trkpt lat="43.163118" lon="-3.461062"/>
      <trkpt lat="43.163519" lon="-3.461194"/>
      <trkpt lat="43.164020" lon="-3.460780"/>
      <trkpt lat="43.164502" lon="-3.459509"/>
      <trkpt lat="43.165600" lon="-3.459534"/>
      <trkpt lat="43.166058" lon="-3.459307"/>
      <trkpt lat="43.166258" lon="-3.459017"/>
      <trkpt lat="43.166269" lon="-3.458615"/>
      <trkpt lat="43.165902" lon="-3.457178"/>
      <trkpt lat="43.165906" lon="-3.456608"/>
      <trkpt lat="43.166027" lon="-3.455748"/>
      <trkpt lat="43.166367" lon="-3.455010"/>
      <trkpt lat="43.166548" lon="-3.454207"/>
      <trkpt lat="43.166529" lon="-3.452696"/>
      <trkpt lat="43.167085" lon="-3.451805"/>
      <trkpt lat="43.167150" lon="-3.450897"/>
      <trkpt lat="43.167435" lon="-3.450089"/>
      <trkpt lat="43.167426" lon="-3.449018"/>
      <trkpt lat="43.167762" lon="-3.447809"/>
      <trkpt lat="43.167561" lon="-3.447779"/>
      <trkpt lat="43.167192" lon="-3.448169"/>
      <trkpt lat="43.166409" lon="-3.450040"/>
      <trkpt lat="43.165748" lon="-3.450220"/>
      <trkpt lat="43.165333" lon="-3.450770"/>
      <trkpt lat="43.165013" lon="-3.452074"/>
      <trkpt lat="43.164884" lon="-3.452118"/>
      <trkpt lat="43.164272" lon="-3.450930"/>
      <trkpt lat="43.164288" lon="-3.449864"/>
      <trkpt lat="43.164569" lon="-3.449106"/>
      <trkpt lat="43.164576" lon="-3.448456"/>
      <trkpt lat="43.164911" lon="-3.447855"/>
      <trkpt lat="43.165104" lon="-3.446268"/>
      <trkpt lat="43.164602" lon="-3.446478"/>
      <trkpt lat="43.164403" lon="-3.447312"/>
      <trkpt lat="43.164074" lon="-3.447492"/>
      <trkpt lat="43.163893" lon="-3.447450"/>
      <trkpt lat="43.164056" lon="-3.446545"/>
      <trkpt lat="43.163988" lon="-3.446285"/>
      <trkpt lat="43.163784" lon="-3.445930"/>
      <trkpt lat="43.163266" lon="-3.445554"/>
      <trkpt lat="43.163167" lon="-3.444473"/>
      <trkpt lat="43.162563" lon="-3.443508"/>
      <trkpt lat="43.162616" lon="-3.443323"/>
      <trkpt lat="43.163256" lon="-3.442812"/>
      <trkpt lat="43.163475" lon="-3.442264"/>
      <trkpt lat="43.161887" lon="-3.439709"/>
      <trkpt lat="43.162122" lon="-3.438007"/>
      <trkpt lat="43.162467" lon="-3.437128"/>
      <trkpt lat="43.162350" lon="-3.436349"/>
      <trkpt lat="43.161775" lon="-3.435964"/>
      <trkpt lat="43.161442" lon="-3.435964"/>
      <trkpt lat="43.161167" lon="-3.436356"/>
      <trkpt lat="43.160205" lon="-3.438582"/>
      <trkpt lat="43.159666" lon="-3.438800"/>
      <trkpt lat="43.158801" lon="-3.438660"/>
      <trkpt lat="43.158002" lon="-3.439139"/>
      <trkpt lat="43.157806" lon="-3.438856"/>
      <trkpt lat="43.157506" lon="-3.437215"/>
      <trkpt lat="43.156907" lon="-3.436178"/>
      <trkpt lat="43.157064" lon="-3.434282"/>
      <trkpt lat="43.156952" lon="-3.434133"/>
      <trkpt lat="43.156955" lon="-3.433663"/>
      <trkpt lat="43.156952" lon="-3.434133"/>
      <trkpt lat="43.157064" lon="-3.434282"/>
      <trkpt lat="43.156907" lon="-3.436178"/>
      <trkpt lat="43.157506" lon="-3.437215"/>
      <trkpt lat="43.157806" lon="-3.438856"/>
      <trkpt lat="43.158002" lon="-3.439139"/>
      <trkpt lat="43.158801" lon="-3.438660"/>
      <trkpt lat="43.159666" lon="-3.438800"/>
      <trkpt lat="43.160205" lon="-3.438582"/>
      <trkpt lat="43.161167" lon="-3.436356"/>
      <trkpt lat="43.161442" lon="-3.435964"/>
      <trkpt lat="43.161775" lon="-3.435964"/>
      <trkpt lat="43.162350" lon="-3.436349"/>
      <trkpt lat="43.162467" lon="-3.437128"/>
      <trkpt lat="43.162122" lon="-3.438007"/>
      <trkpt lat="43.161887" lon="-3.439709"/>
      <trkpt lat="43.163457" lon="-3.442178"/>
      <trkpt lat="43.163256" lon="-3.442812"/>
      <trkpt lat="43.162616" lon="-3.443323"/>
      <trkpt lat="43.162563" lon="-3.443508"/>
      <trkpt lat="43.163167" lon="-3.444473"/>
      <trkpt lat="43.163266" lon="-3.445554"/>
      <trkpt lat="43.163784" lon="-3.445930"/>
      <trkpt lat="43.163988" lon="-3.446285"/>
      <trkpt lat="43.164032" lon="-3.446753"/>
      <trkpt lat="43.163843" lon="-3.447345"/>
      <trkpt lat="43.163956" lon="-3.447494"/>
      <trkpt lat="43.164403" lon="-3.447312"/>
      <trkpt lat="43.164602" lon="-3.446478"/>
      <trkpt lat="43.165104" lon="-3.446268"/>
      <trkpt lat="43.165206" lon="-3.445938"/>
      <trkpt lat="43.165491" lon="-3.445617"/>
      <trkpt lat="43.166003" lon="-3.443999"/>
      <trkpt lat="43.166856" lon="-3.443366"/>
      <trkpt lat="43.167170" lon="-3.442563"/>
      <trkpt lat="43.168115" lon="-3.441783"/>
      <trkpt lat="43.168668" lon="-3.439931"/>
      <trkpt lat="43.169056" lon="-3.439469"/>
      <trkpt lat="43.169858" lon="-3.438874"/>
      <trkpt lat="43.170198" lon="-3.437918"/>
      <trkpt lat="43.170143" lon="-3.437718"/>
      <trkpt lat="43.169181" lon="-3.438582"/>
      <trkpt lat="43.169033" lon="-3.438613"/>
      <trkpt lat="43.168975" lon="-3.438470"/>
      <trkpt lat="43.169547" lon="-3.437238"/>
      <trkpt lat="43.169895" lon="-3.436900"/>
      <trkpt lat="43.171195" lon="-3.436504"/>
      <trkpt lat="43.172003" lon="-3.436438"/>
      <trkpt lat="43.173652" lon="-3.436566"/>
      <trkpt lat="43.175351" lon="-3.437120"/>
      <trkpt lat="43.176826" lon="-3.436640"/>
      <trkpt lat="43.178349" lon="-3.436602"/>
      <trkpt lat="43.179844" lon="-3.436777"/>
      <trkpt lat="43.182100" lon="-3.435951"/>
      <trkpt lat="43.183674" lon="-3.435931"/>
      <trkpt lat="43.184781" lon="-3.435696"/>
      <trkpt lat="43.186992" lon="-3.435664"/>
      <trkpt lat="43.189353" lon="-3.435976"/>
      <trkpt lat="43.191442" lon="-3.436553"/>
      <trkpt lat="43.194212" lon="-3.436744"/>
      <trkpt lat="43.195619" lon="-3.436250"/>
      <trkpt lat="43.196957" lon="-3.436201"/>
      <trkpt lat="43.197606" lon="-3.436027"/>
      <trkpt lat="43.198394" lon="-3.435571"/>
      <trkpt lat="43.199733" lon="-3.435100"/>
      <trkpt lat="43.200884" lon="-3.434168"/>
      <trkpt lat="43.201683" lon="-3.433715"/>
      <trkpt lat="43.202824" lon="-3.433663"/>
      <trkpt lat="43.204373" lon="-3.433122"/>
      <trkpt lat="43.205738" lon="-3.432912"/>
      <trkpt lat="43.206372" lon="-3.433036"/>
      <trkpt lat="43.207903" lon="-3.433850"/>
      <trkpt lat="43.209238" lon="-3.433133"/>
      <trkpt lat="43.209761" lon="-3.433160"/>
      <trkpt lat="43.210511" lon="-3.433964"/>
      <trkpt lat="43.212587" lon="-3.437126"/>
      <trkpt lat="43.212908" lon="-3.437306"/>
      <trkpt lat="43.213352" lon="-3.437325"/>
      <trkpt lat="43.214716" lon="-3.436936"/>
      <trkpt lat="43.215071" lon="-3.436944"/>
      <trkpt lat="43.217599" lon="-3.438458"/>
      <trkpt lat="43.218780" lon="-3.439784"/>
      <trkpt lat="43.219683" lon="-3.438346"/>
      <trkpt lat="43.219875" lon="-3.438299"/>
      <trkpt lat="43.222521" lon="-3.440012"/>
      <trkpt lat="43.228180" lon="-3.444658"/>
      <trkpt lat="43.228994" lon="-3.446163"/>
      <trkpt lat="43.229874" lon="-3.446962"/>
      <trkpt lat="43.230682" lon="-3.447149"/>
      <trkpt lat="43.231156" lon="-3.448044"/>
      <trkpt lat="43.231874" lon="-3.448668"/>
      <trkpt lat="43.233005" lon="-3.449210"/>
      <trkpt lat="43.233465" lon="-3.449201"/>
      <trkpt lat="43.234360" lon="-3.448872"/>
      <trkpt lat="43.234922" lon="-3.448965"/>
      <trkpt lat="43.235490" lon="-3.449319"/>
      <trkpt lat="43.236348" lon="-3.450500"/>
      <trkpt lat="43.236663" lon="-3.450725"/>
      <trkpt lat="43.237753" lon="-3.451159"/>
      <trkpt lat="43.238656" lon="-3.450987"/>
      <trkpt lat="43.240055" lon="-3.451066"/>
      <trkpt lat="43.241457" lon="-3.451610"/>
      <trkpt lat="43.242203" lon="-3.452170"/>
      <trkpt lat="43.242972" lon="-3.453173"/>
      <trkpt lat="43.243034" lon="-3.453750"/>
      <trkpt lat="43.243353" lon="-3.454294"/>
      <trkpt lat="43.244000" lon="-3.454819"/>
      <trkpt lat="43.244213" lon="-3.456199"/>
      <trkpt lat="43.244902" lon="-3.457257"/>
      <trkpt lat="43.243885" lon="-3.459166"/>
      <trkpt lat="43.243871" lon="-3.460191"/>
      <trkpt lat="43.243459" lon="-3.460949"/>
      <trkpt lat="43.243358" lon="-3.462180"/>
      <trkpt lat="43.243560" lon="-3.461884"/>
      <trkpt lat="43.243726" lon="-3.461191"/>
      <trkpt lat="43.244194" lon="-3.460674"/>
      <trkpt lat="43.244837" lon="-3.459417"/>
      <trkpt lat="43.245567" lon="-3.459378"/>
      <trkpt lat="43.246021" lon="-3.459219"/>
      <trkpt lat="43.246186" lon="-3.459363"/>
      <trkpt lat="43.246136" lon="-3.459562"/>
      <trkpt lat="43.245474" lon="-3.459884"/>
      <trkpt lat="43.245185" lon="-3.460192"/>
      <trkpt lat="43.244924" lon="-3.460613"/>
      <trkpt lat="43.245063" lon="-3.460816"/>
      <trkpt lat="43.245696" lon="-3.460403"/>
      <trkpt lat="43.246883" lon="-3.460307"/>
      <trkpt lat="43.247876" lon="-3.459285"/>
      <trkpt lat="43.248541" lon="-3.460513"/>
      <trkpt lat="43.249270" lon="-3.460999"/>
      <trkpt lat="43.253232" lon="-3.462072"/>
      <trkpt lat="43.254947" lon="-3.463673"/>
      <trkpt lat="43.256392" lon="-3.464601"/>
      <trkpt lat="43.257121" lon="-3.464698"/>
      <trkpt lat="43.257042" lon="-3.463452"/>
      <trkpt lat="43.256671" lon="-3.462819"/>
      <trkpt lat="43.256702" lon="-3.462244"/>
      <trkpt lat="43.257031" lon="-3.461643"/>
      <trkpt lat="43.257029" lon="-3.460638"/>
      <trkpt lat="43.257435" lon="-3.459423"/>
      <trkpt lat="43.257809" lon="-3.459060"/>
      <trkpt lat="43.258070" lon="-3.457380"/>
      <trkpt lat="43.258341" lon="-3.456882"/>
      <trkpt lat="43.259225" lon="-3.453932"/>
      <trkpt lat="43.258717" lon="-3.452193"/>
      <trkpt lat="43.258385" lon="-3.451965"/>
      <trkpt lat="43.257815" lon="-3.452160"/>
      <trkpt lat="43.257392" lon="-3.451800"/>
      <trkpt lat="43.257065" lon="-3.450571"/>
      <trkpt lat="43.256807" lon="-3.450267"/>
      <trkpt lat="43.257065" lon="-3.450571"/>
      <trkpt lat="43.257392" lon="-3.451800"/>
      <trkpt lat="43.257815" lon="-3.452160"/>
      <trkpt lat="43.258385" lon="-3.451965"/>
      <trkpt lat="43.258717" lon="-3.452193"/>
      <trkpt lat="43.259225" lon="-3.453932"/>
      <trkpt lat="43.258341" lon="-3.456882"/>
      <trkpt lat="43.258070" lon="-3.457380"/>
      <trkpt lat="43.257809" lon="-3.459060"/>
      <trkpt lat="43.257435" lon="-3.459423"/>
      <trkpt lat="43.257029" lon="-3.460638"/>
      <trkpt lat="43.257031" lon="-3.461643"/>
      <trkpt lat="43.256702" lon="-3.462244"/>
      <trkpt lat="43.256671" lon="-3.462819"/>
      <trkpt lat="43.257042" lon="-3.463452"/>
      <trkpt lat="43.257121" lon="-3.464698"/>
      <trkpt lat="43.258508" lon="-3.465015"/>
      <trkpt lat="43.260424" lon="-3.466208"/>
      <trkpt lat="43.260811" lon="-3.466274"/>
      <trkpt lat="43.261200" lon="-3.466057"/>
      <trkpt lat="43.261395" lon="-3.465737"/>
      <trkpt lat="43.262484" lon="-3.461950"/>
      <trkpt lat="43.263261" lon="-3.459736"/>
      <trkpt lat="43.264009" lon="-3.458055"/>
      <trkpt lat="43.266708" lon="-3.454357"/>
      <trkpt lat="43.270079" lon="-3.451457"/>
      <trkpt lat="43.271445" lon="-3.451311"/>
      <trkpt lat="43.272551" lon="-3.451628"/>
      <trkpt lat="43.273141" lon="-3.451618"/>
      <trkpt lat="43.275057" lon="-3.451195"/>
      <trkpt lat="43.276442" lon="-3.450425"/>
      <trkpt lat="43.277212" lon="-3.449604"/>
      <trkpt lat="43.277791" lon="-3.448569"/>
      <trkpt lat="43.278704" lon="-3.444945"/>
      <trkpt lat="43.279932" lon="-3.443419"/>
      <trkpt lat="43.280643" lon="-3.441983"/>
      <trkpt lat="43.281354" lon="-3.441312"/>
      <trkpt lat="43.284426" lon="-3.439945"/>
      <trkpt lat="43.285102" lon="-3.439504"/>
      <trkpt lat="43.286019" lon="-3.438426"/>
      <trkpt lat="43.287190" lon="-3.436315"/>
      <trkpt lat="43.287732" lon="-3.435734"/>
      <trkpt lat="43.288334" lon="-3.435315"/>
      <trkpt lat="43.289305" lon="-3.434971"/>
      <trkpt lat="43.294406" lon="-3.433736"/>
      <trkpt lat="43.295480" lon="-3.433763"/>
      <trkpt lat="43.296720" lon="-3.434015"/>
      <trkpt lat="43.297852" lon="-3.433955"/>
      <trkpt lat="43.303580" lon="-3.432100"/>
      <trkpt lat="43.306124" lon="-3.431124"/>
      <trkpt lat="43.310859" lon="-3.429844"/>
      <trkpt lat="43.312203" lon="-3.428885"/>
      <trkpt lat="43.313007" lon="-3.427696"/>
      <trkpt lat="43.313493" lon="-3.426393"/>
      <trkpt lat="43.313679" lon="-3.424939"/>
      <trkpt lat="43.314516" lon="-3.425218"/>
      <trkpt lat="43.315451" lon="-3.425042"/>
      <trkpt lat="43.316042" lon="-3.425321"/>
      <trkpt lat="43.316902" lon="-3.425991"/>
      <trkpt lat="43.317610" lon="-3.425998"/>
      <trkpt lat="43.318214" lon="-3.426206"/>
      <trkpt lat="43.318991" lon="-3.425854"/>
      <trkpt lat="43.320273" lon="-3.425714"/>
      <trkpt lat="43.320380" lon="-3.425073"/>
      <trkpt lat="43.320651" lon="-3.424496"/>
      <trkpt lat="43.321572" lon="-3.423872"/>
      <trkpt lat="43.323458" lon="-3.423339"/>
      <trkpt lat="43.325040" lon="-3.423236"/>
      <trkpt lat="43.326099" lon="-3.422492"/>
      <trkpt lat="43.328136" lon="-3.422464"/>
      <trkpt lat="43.329334" lon="-3.421971"/>
      <trkpt lat="43.330311" lon="-3.421889"/>
      <trkpt lat="43.331564" lon="-3.421073"/>
      <trkpt lat="43.334631" lon="-3.420007"/>
      <trkpt lat="43.335335" lon="-3.419950"/>
      <trkpt lat="43.336099" lon="-3.419582"/>
      <trkpt lat="43.337433" lon="-3.419277"/>
      <trkpt lat="43.340391" lon="-3.418985"/>
      <trkpt lat="43.342595" lon="-3.417816"/>
      <trkpt lat="43.343282" lon="-3.416805"/>
      <trkpt lat="43.344500" lon="-3.416066"/>
      <trkpt lat="43.344742" lon="-3.413592"/>
      <trkpt lat="43.344251" lon="-3.413245"/>
      <trkpt lat="43.344580" lon="-3.412171"/>
      <trkpt lat="43.347818" lon="-3.413974"/>
      <trkpt lat="43.348153" lon="-3.413838"/>
      <trkpt lat="43.348423" lon="-3.413499"/>
      <trkpt lat="43.348966" lon="-3.412109"/>
      <trkpt lat="43.348916" lon="-3.411925"/>
      <trkpt lat="43.349059" lon="-3.411835"/>
      <trkpt lat="43.349254" lon="-3.412212"/>
      <trkpt lat="43.349869" lon="-3.412718"/>
      <trkpt lat="43.351146" lon="-3.414322"/>
      <trkpt lat="43.352058" lon="-3.415140"/>
      <trkpt lat="43.352806" lon="-3.415460"/>
      <trkpt lat="43.354081" lon="-3.415575"/>
      <trkpt lat="43.354986" lon="-3.415826"/>
      <trkpt lat="43.355849" lon="-3.416398"/>
      <trkpt lat="43.357042" lon="-3.417601"/>
      <trkpt lat="43.357529" lon="-3.417895"/>
      <trkpt lat="43.358126" lon="-3.418044"/>
      <trkpt lat="43.359147" lon="-3.417884"/>
      <trkpt lat="43.360075" lon="-3.417183"/>
      <trkpt lat="43.360611" lon="-3.416365"/>
      <trkpt lat="43.361420" lon="-3.414355"/>
      <trkpt lat="43.362172" lon="-3.413477"/>
      <trkpt lat="43.362839" lon="-3.413115"/>
      <trkpt lat="43.363370" lon="-3.412998"/>
      <trkpt lat="43.364054" lon="-3.413074"/>
      <trkpt lat="43.364651" lon="-3.413356"/>
      <trkpt lat="43.365456" lon="-3.414143"/>
      <trkpt lat="43.365986" lon="-3.415242"/>
      <trkpt lat="43.368041" lon="-3.424463"/>
      <trkpt lat="43.368373" lon="-3.425390"/>
      <trkpt lat="43.368896" lon="-3.426290"/>
      <trkpt lat="43.369527" lon="-3.426977"/>
      <trkpt lat="43.370165" lon="-3.427411"/>
      <trkpt lat="43.375278" lon="-3.429594"/>
      <trkpt lat="43.376427" lon="-3.430457"/>
      <trkpt lat="43.377946" lon="-3.432559"/>
      <trkpt lat="43.379189" lon="-3.433492"/>
      <trkpt lat="43.379704" lon="-3.434151"/>
      <trkpt lat="43.380690" lon="-3.437183"/>
      <trkpt lat="43.381127" lon="-3.438035"/>
      <trkpt lat="43.381590" lon="-3.438531"/>
      <trkpt lat="43.383106" lon="-3.439512"/>
      <trkpt lat="43.383980" lon="-3.440574"/>
      <trkpt lat="43.386849" lon="-3.446507"/>
      <trkpt lat="43.387354" lon="-3.447050"/>
      <trkpt lat="43.388428" lon="-3.447820"/>
      <trkpt lat="43.390545" lon="-3.448760"/>
      <trkpt lat="43.390281" lon="-3.449497"/>
      <trkpt lat="43.389623" lon="-3.450098"/>
      <trkpt lat="43.389508" lon="-3.450739"/>
      <trkpt lat="43.389914" lon="-3.452627"/>
      <trkpt lat="43.391392" lon="-3.456617"/>
      <trkpt lat="43.391647" lon="-3.458123"/>
      <trkpt lat="43.391693" lon="-3.459513"/>
      <trkpt lat="43.390553" lon="-3.470239"/>
      <trkpt lat="43.390442" lon="-3.473676"/>
      <trkpt lat="43.390592" lon="-3.475039"/>
      <trkpt lat="43.390999" lon="-3.476778"/>
      <trkpt lat="43.391876" lon="-3.478836"/>
      <trkpt lat="43.392882" lon="-3.480314"/>
      <trkpt lat="43.394420" lon="-3.481825"/>
      <trkpt lat="43.397929" lon="-3.484619"/>
      <trkpt lat="43.398411" lon="-3.484771"/>
      <trkpt lat="43.398911" lon="-3.484622"/>
      <trkpt lat="43.399877" lon="-3.483410"/>
      <trkpt lat="43.400341" lon="-3.482578"/>
      <trkpt lat="43.400893" lon="-3.481332"/>
      <trkpt lat="43.400975" lon="-3.480247"/>
      <trkpt lat="43.400675" lon="-3.479590"/>
      <trkpt lat="43.397843" lon="-3.475842"/>
      <trkpt lat="43.396996" lon="-3.475196"/>
      <trkpt lat="43.396013" lon="-3.474949"/>
      <trkpt lat="43.396827" lon="-3.475035"/>
      <trkpt lat="43.397528" lon="-3.475436"/>
      <trkpt lat="43.399118" lon="-3.477459"/>
      <trkpt lat="43.399294" lon="-3.476691"/>
      <trkpt lat="43.399312" lon="-3.475328"/>
      <trkpt lat="43.399524" lon="-3.474704"/>
      <trkpt lat="43.399435" lon="-3.473797"/>
      <trkpt lat="43.399614" lon="-3.473613"/>
      <trkpt lat="43.400365" lon="-3.473319"/>
      <trkpt lat="43.400911" lon="-3.472524"/>
      <trkpt lat="43.401051" lon="-3.472618"/>
      <trkpt lat="43.400856" lon="-3.472527"/>
      <trkpt lat="43.400365" lon="-3.473319"/>
      <trkpt lat="43.399614" lon="-3.473613"/>
      <trkpt lat="43.399435" lon="-3.473797"/>
      <trkpt lat="43.399524" lon="-3.474704"/>
      <trkpt lat="43.399312" lon="-3.475328"/>
      <trkpt lat="43.399294" lon="-3.476691"/>
      <trkpt lat="43.399118" lon="-3.477459"/>
      <trkpt lat="43.400286" lon="-3.479026"/>
      <trkpt lat="43.401026" lon="-3.479695"/>
      <trkpt lat="43.401438" lon="-3.479800"/>
      <trkpt lat="43.402613" lon="-3.479598"/>
      <trkpt lat="43.403582" lon="-3.479580"/>
      <trkpt lat="43.404252" lon="-3.479801"/>
      <trkpt lat="43.404831" lon="-3.480227"/>
      <trkpt lat="43.405054" lon="-3.480463"/>
      <trkpt lat="43.404897" lon="-3.480887"/>
      <trkpt lat="43.404976" lon="-3.481513"/>
      <trkpt lat="43.405495" lon="-3.482246"/>
      <trkpt lat="43.406297" lon="-3.484324"/>
      <trkpt lat="43.406597" lon="-3.485791"/>
      <trkpt lat="43.405510" lon="-3.486632"/>
      <trkpt lat="43.404715" lon="-3.487784"/>
      <trkpt lat="43.404519" lon="-3.489356"/>
      <trkpt lat="43.404248" lon="-3.490294"/>
      <trkpt lat="43.404333" lon="-3.491282"/>
      <trkpt lat="43.403971" lon="-3.491854"/>
      <trkpt lat="43.404524" lon="-3.492928"/>
      <trkpt lat="43.404664" lon="-3.493763"/>
      <trkpt lat="43.405210" lon="-3.494510"/>
      <trkpt lat="43.404588" lon="-3.496537"/>
      <trkpt lat="43.404644" lon="-3.496758"/>
      <trkpt lat="43.404993" lon="-3.496973"/>
      <trkpt lat="43.405053" lon="-3.497842"/>
      <trkpt lat="43.403973" lon="-3.498140"/>
      <trkpt lat="43.403640" lon="-3.498793"/>
      <trkpt lat="43.403483" lon="-3.499913"/>
      <trkpt lat="43.401637" lon="-3.501263"/>
      <trkpt lat="43.401062" lon="-3.502326"/>
      <trkpt lat="43.399974" lon="-3.503013"/>
      <trkpt lat="43.399771" lon="-3.503527"/>
      <trkpt lat="43.399835" lon="-3.504115"/>
      <trkpt lat="43.399144" lon="-3.507389"/>
      <trkpt lat="43.399011" lon="-3.507614"/>
      <trkpt lat="43.398120" lon="-3.508293"/>
      <trkpt lat="43.398205" lon="-3.508986"/>
      <trkpt lat="43.398096" lon="-3.509052"/>
      <trkpt lat="43.397454" lon="-3.508652"/>
      <trkpt lat="43.397063" lon="-3.508869"/>
      <trkpt lat="43.396114" lon="-3.507355"/>
      <trkpt lat="43.396378" lon="-3.508644"/>
      <trkpt lat="43.396336" lon="-3.509544"/>
      <trkpt lat="43.396569" lon="-3.509974"/>
      <trkpt lat="43.396926" lon="-3.509790"/>
      <trkpt lat="43.397002" lon="-3.509928"/>
      <trkpt lat="43.396748" lon="-3.510762"/>
      <trkpt lat="43.396148" lon="-3.511095"/>
      <trkpt lat="43.395678" lon="-3.511012"/>
      <trkpt lat="43.395375" lon="-3.510699"/>
      <trkpt lat="43.394827" lon="-3.510670"/>
      <trkpt lat="43.394500" lon="-3.510824"/>
      <trkpt lat="43.393903" lon="-3.510762"/>
      <trkpt lat="43.392976" lon="-3.509861"/>
      <trkpt lat="43.392921" lon="-3.509302"/>
      <trkpt lat="43.391827" lon="-3.510954"/>
      <trkpt lat="43.391815" lon="-3.511404"/>
      <trkpt lat="43.392150" lon="-3.512366"/>
      <trkpt lat="43.391767" lon="-3.513194"/>
      <trkpt lat="43.391832" lon="-3.515081"/>
      <trkpt lat="43.391537" lon="-3.520122"/>
      <trkpt lat="43.391645" lon="-3.521245"/>
      <trkpt lat="43.391944" lon="-3.522063"/>
      <trkpt lat="43.391890" lon="-3.522898"/>
      <trkpt lat="43.392585" lon="-3.526499"/>
      <trkpt lat="43.392931" lon="-3.529751"/>
      <trkpt lat="43.393593" lon="-3.529925"/>
      <trkpt lat="43.394300" lon="-3.531400"/>
      <trkpt lat="43.394583" lon="-3.531661"/>
      <trkpt lat="43.394893" lon="-3.532706"/>
      <trkpt lat="43.395293" lon="-3.533120"/>
      <trkpt lat="43.395506" lon="-3.532416"/>
      <trkpt lat="43.395572" lon="-3.530856"/>
      <trkpt lat="43.396001" lon="-3.529502"/>
      <trkpt lat="43.396213" lon="-3.529354"/>
      <trkpt lat="43.397705" lon="-3.529048"/>
      <trkpt lat="43.398557" lon="-3.529625"/>
      <trkpt lat="43.399079" lon="-3.529806"/>
      <trkpt lat="43.398951" lon="-3.530134"/>
      <trkpt lat="43.399087" lon="-3.530377"/>
      <trkpt lat="43.399583" lon="-3.530162"/>
      <trkpt lat="43.401052" lon="-3.530602"/>
      <trkpt lat="43.402099" lon="-3.530683"/>
      <trkpt lat="43.402794" lon="-3.531644"/>
      <trkpt lat="43.403560" lon="-3.531613"/>
      <trkpt lat="43.404333" lon="-3.531851"/>
      <trkpt lat="43.404613" lon="-3.532099"/>
      <trkpt lat="43.404812" lon="-3.532614"/>
      <trkpt lat="43.405104" lon="-3.532773"/>
      <trkpt lat="43.405512" lon="-3.532253"/>
      <trkpt lat="43.406267" lon="-3.531838"/>
      <trkpt lat="43.406278" lon="-3.531141"/>
      <trkpt lat="43.406461" lon="-3.530805"/>
      <trkpt lat="43.407622" lon="-3.530122"/>
      <trkpt lat="43.408592" lon="-3.530261"/>
      <trkpt lat="43.409243" lon="-3.529770"/>
      <trkpt lat="43.409855" lon="-3.528965"/>
      <trkpt lat="43.410781" lon="-3.528085"/>
      <trkpt lat="43.411661" lon="-3.527757"/>
      <trkpt lat="43.412111" lon="-3.527394"/>
      <trkpt lat="43.412390" lon="-3.526965"/>
      <trkpt lat="43.413263" lon="-3.527345"/>
      <trkpt lat="43.413350" lon="-3.527999"/>
      <trkpt lat="43.413713" lon="-3.528445"/>
      <trkpt lat="43.413624" lon="-3.529421"/>
      <trkpt lat="43.414457" lon="-3.532144"/>
      <trkpt lat="43.414616" lon="-3.533555"/>
      <trkpt lat="43.414314" lon="-3.534760"/>
      <trkpt lat="43.415106" lon="-3.535511"/>
      <trkpt lat="43.416019" lon="-3.537009"/>
      <trkpt lat="43.416038" lon="-3.537836"/>
      <trkpt lat="43.416268" lon="-3.538551"/>
      <trkpt lat="43.416366" lon="-3.539588"/>
      <trkpt lat="43.416942" lon="-3.539971"/>
      <trkpt lat="43.417300" lon="-3.540552"/>
      <trkpt lat="43.417589" lon="-3.540752"/>
      <trkpt lat="43.417965" lon="-3.541338"/>
      <trkpt lat="43.417792" lon="-3.541777"/>
      <trkpt lat="43.418422" lon="-3.542632"/>
      <trkpt lat="43.418607" lon="-3.542809"/>
      <trkpt lat="43.419452" lon="-3.542860"/>
      <trkpt lat="43.418724" lon="-3.544742"/>
      <trkpt lat="43.417676" lon="-3.549011"/>
      <trkpt lat="43.417700" lon="-3.550419"/>
      <trkpt lat="43.418094" lon="-3.553692"/>
      <trkpt lat="43.417900" lon="-3.554820"/>
      <trkpt lat="43.417377" lon="-3.555861"/>
      <trkpt lat="43.418050" lon="-3.555002"/>
      <trkpt lat="43.418266" lon="-3.555145"/>
      <trkpt lat="43.418508" lon="-3.555607"/>
      <trkpt lat="43.418714" lon="-3.555539"/>
      <trkpt lat="43.418970" lon="-3.554925"/>
      <trkpt lat="43.419232" lon="-3.554773"/>
      <trkpt lat="43.419961" lon="-3.553529"/>
      <trkpt lat="43.420237" lon="-3.552762"/>
      <trkpt lat="43.420863" lon="-3.552705"/>
      <trkpt lat="43.421313" lon="-3.552813"/>
      <trkpt lat="43.421627" lon="-3.552631"/>
      <trkpt lat="43.422189" lon="-3.552544"/>
      <trkpt lat="43.422953" lon="-3.551921"/>
      <trkpt lat="43.423707" lon="-3.551532"/>
      <trkpt lat="43.424421" lon="-3.550201"/>
      <trkpt lat="43.424778" lon="-3.548458"/>
      <trkpt lat="43.425078" lon="-3.547557"/>
      <trkpt lat="43.425389" lon="-3.547211"/>
      <trkpt lat="43.425409" lon="-3.546730"/>
      <trkpt lat="43.425119" lon="-3.545279"/>
      <trkpt lat="43.424966" lon="-3.545298"/>
      <trkpt lat="43.424685" lon="-3.545844"/>
      <trkpt lat="43.424304" lon="-3.546143"/>
      <trkpt lat="43.422911" lon="-3.545876"/>
      <trkpt lat="43.422383" lon="-3.545387"/>
      <trkpt lat="43.422204" lon="-3.544859"/>
      <trkpt lat="43.421851" lon="-3.544603"/>
      <trkpt lat="43.421325" lon="-3.543361"/>
      <trkpt lat="43.420457" lon="-3.543175"/>
      <trkpt lat="43.419943" lon="-3.542874"/>
      <trkpt lat="43.419569" lon="-3.543110"/>
      <trkpt lat="43.419546" lon="-3.543376"/>
      <trkpt lat="43.420346" lon="-3.547361"/>
      <trkpt lat="43.419893" lon="-3.547682"/>
      <trkpt lat="43.418485" lon="-3.547962"/>
      <trkpt lat="43.417984" lon="-3.548347"/>
      <trkpt lat="43.416954" lon="-3.548285"/>
      <trkpt lat="43.416186" lon="-3.547380"/>
      <trkpt lat="43.415649" lon="-3.544019"/>
      <trkpt lat="43.415752" lon="-3.543476"/>
      <trkpt lat="43.415473" lon="-3.543151"/>
      <trkpt lat="43.415040" lon="-3.542837"/>
      <trkpt lat="43.414732" lon="-3.542776"/>
      <trkpt lat="43.412565" lon="-3.543530"/>
      <trkpt lat="43.411625" lon="-3.543164"/>
      <trkpt lat="43.411540" lon="-3.542890"/>
      <trkpt lat="43.411189" lon="-3.542778"/>
      <trkpt lat="43.410690" lon="-3.542950"/>
      <trkpt lat="43.410240" lon="-3.542335"/>
      <trkpt lat="43.410214" lon="-3.541019"/>
      <trkpt lat="43.409845" lon="-3.539757"/>
      <trkpt lat="43.409627" lon="-3.539618"/>
      <trkpt lat="43.408450" lon="-3.539729"/>
      <trkpt lat="43.407970" lon="-3.540071"/>
      <trkpt lat="43.407660" lon="-3.540826"/>
      <trkpt lat="43.407815" lon="-3.541035"/>
      <trkpt lat="43.408288" lon="-3.540915"/>
      <trkpt lat="43.408523" lon="-3.541092"/>
      <trkpt lat="43.408760" lon="-3.541773"/>
      <trkpt lat="43.408727" lon="-3.542893"/>
      <trkpt lat="43.408595" lon="-3.542918"/>
      <trkpt lat="43.408435" lon="-3.542454"/>
      <trkpt lat="43.408158" lon="-3.542322"/>
      <trkpt lat="43.407080" lon="-3.542581"/>
      <trkpt lat="43.406042" lon="-3.543079"/>
      <trkpt lat="43.405472" lon="-3.543082"/>
      <trkpt lat="43.404650" lon="-3.543486"/>
      <trkpt lat="43.404318" lon="-3.543959"/>
      <trkpt lat="43.404176" lon="-3.545229"/>
      <trkpt lat="43.403343" lon="-3.545945"/>
      <trkpt lat="43.403001" lon="-3.547133"/>
      <trkpt lat="43.402642" lon="-3.547744"/>
      <trkpt lat="43.402660" lon="-3.549302"/>
      <trkpt lat="43.401821" lon="-3.548907"/>
      <trkpt lat="43.401602" lon="-3.548929"/>
      <trkpt lat="43.401047" lon="-3.549516"/>
      <trkpt lat="43.400771" lon="-3.550358"/>
      <trkpt lat="43.400744" lon="-3.550678"/>
      <trkpt lat="43.401023" lon="-3.551202"/>
      <trkpt lat="43.400923" lon="-3.552155"/>
      <trkpt lat="43.401231" lon="-3.552610"/>
      <trkpt lat="43.401325" lon="-3.553236"/>
      <trkpt lat="43.401250" lon="-3.554201"/>
      <trkpt lat="43.400993" lon="-3.555361"/>
      <trkpt lat="43.400649" lon="-3.555501"/>
      <trkpt lat="43.400363" lon="-3.555815"/>
      <trkpt lat="43.399387" lon="-3.557834"/>
      <trkpt lat="43.400690" lon="-3.557736"/>
      <trkpt lat="43.401042" lon="-3.557937"/>
      <trkpt lat="43.401848" lon="-3.557500"/>
      <trkpt lat="43.402094" lon="-3.557746"/>
      <trkpt lat="43.401848" lon="-3.557500"/>
      <trkpt lat="43.401042" lon="-3.557937"/>
      <trkpt lat="43.400690" lon="-3.557736"/>
      <trkpt lat="43.399387" lon="-3.557834"/>
      <trkpt lat="43.400363" lon="-3.555815"/>
      <trkpt lat="43.400649" lon="-3.555501"/>
      <trkpt lat="43.400993" lon="-3.555361"/>
      <trkpt lat="43.401099" lon="-3.554990"/>
      <trkpt lat="43.401334" lon="-3.553379"/>
      <trkpt lat="43.401240" lon="-3.552636"/>
      <trkpt lat="43.400915" lon="-3.552100"/>
      <trkpt lat="43.401013" lon="-3.551150"/>
      <trkpt lat="43.400738" lon="-3.550653"/>
      <trkpt lat="43.400972" lon="-3.549666"/>
      <trkpt lat="43.401273" lon="-3.549188"/>
      <trkpt lat="43.401714" lon="-3.548896"/>
      <trkpt lat="43.402660" lon="-3.549302"/>
      <trkpt lat="43.402642" lon="-3.547744"/>
      <trkpt lat="43.403001" lon="-3.547133"/>
      <trkpt lat="43.403343" lon="-3.545945"/>
      <trkpt lat="43.404151" lon="-3.545281"/>
      <trkpt lat="43.404318" lon="-3.543959"/>
      <trkpt lat="43.404729" lon="-3.543417"/>
      <trkpt lat="43.405472" lon="-3.543082"/>
      <trkpt lat="43.406042" lon="-3.543079"/>
      <trkpt lat="43.407080" lon="-3.542581"/>
      <trkpt lat="43.408158" lon="-3.542322"/>
      <trkpt lat="43.408435" lon="-3.542454"/>
      <trkpt lat="43.408595" lon="-3.542918"/>
      <trkpt lat="43.408727" lon="-3.542893"/>
      <trkpt lat="43.408760" lon="-3.541773"/>
      <trkpt lat="43.408553" lon="-3.541153"/>
      <trkpt lat="43.408288" lon="-3.540915"/>
      <trkpt lat="43.407778" lon="-3.541021"/>
      <trkpt lat="43.407677" lon="-3.540622"/>
      <trkpt lat="43.407970" lon="-3.540071"/>
      <trkpt lat="43.408309" lon="-3.539774"/>
      <trkpt lat="43.409666" lon="-3.539622"/>
      <trkpt lat="43.409845" lon="-3.539757"/>
      <trkpt lat="43.410067" lon="-3.540273"/>
      <trkpt lat="43.410232" lon="-3.541163"/>
      <trkpt lat="43.410252" lon="-3.542378"/>
      <trkpt lat="43.410666" lon="-3.542938"/>
      <trkpt lat="43.411027" lon="-3.542760"/>
      <trkpt lat="43.411540" lon="-3.542890"/>
      <trkpt lat="43.411722" lon="-3.542759"/>
      <trkpt lat="43.411972" lon="-3.543205"/>
      <trkpt lat="43.412535" lon="-3.543421"/>
      <trkpt lat="43.413704" lon="-3.543113"/>
      <trkpt lat="43.413856" lon="-3.543194"/>
      <trkpt lat="43.413938" lon="-3.544364"/>
      <trkpt lat="43.414189" lon="-3.545308"/>
      <trkpt lat="43.414792" lon="-3.546515"/>
      <trkpt lat="43.416100" lon="-3.548518"/>
      <trkpt lat="43.416637" lon="-3.549749"/>
      <trkpt lat="43.416986" lon="-3.551294"/>
      <trkpt lat="43.417051" lon="-3.552523"/>
      <trkpt lat="43.416810" lon="-3.554326"/>
      <trkpt lat="43.416280" lon="-3.555753"/>
      <trkpt lat="43.415148" lon="-3.557377"/>
      <trkpt lat="43.413663" lon="-3.558669"/>
      <trkpt lat="43.412822" lon="-3.559691"/>
      <trkpt lat="43.412159" lon="-3.560919"/>
      <trkpt lat="43.411540" lon="-3.562881"/>
      <trkpt lat="43.411328" lon="-3.564738"/>
      <trkpt lat="43.411416" lon="-3.566486"/>
      <trkpt lat="43.412492" lon="-3.570792"/>
      <trkpt lat="43.412622" lon="-3.572567"/>
      <trkpt lat="43.412501" lon="-3.574312"/>
      <trkpt lat="43.411757" lon="-3.577792"/>
      <trkpt lat="43.411756" lon="-3.581692"/>
      <trkpt lat="43.411153" lon="-3.585510"/>
      <trkpt lat="43.411192" lon="-3.586819"/>
      <trkpt lat="43.411549" lon="-3.589445"/>
      <trkpt lat="43.411522" lon="-3.591277"/>
      <trkpt lat="43.411169" lon="-3.593060"/>
      <trkpt lat="43.410513" lon="-3.595055"/>
      <trkpt lat="43.409582" lon="-3.596937"/>
      <trkpt lat="43.407568" lon="-3.600191"/>
      <trkpt lat="43.406975" lon="-3.601833"/>
      <trkpt lat="43.406780" lon="-3.603116"/>
      <trkpt lat="43.407126" lon="-3.608887"/>
      <trkpt lat="43.407419" lon="-3.609750"/>
      <trkpt lat="43.407830" lon="-3.612732"/>
      <trkpt lat="43.407696" lon="-3.614134"/>
      <trkpt lat="43.407929" lon="-3.615434"/>
      <trkpt lat="43.407625" lon="-3.616138"/>
      <trkpt lat="43.407163" lon="-3.619079"/>
      <trkpt lat="43.406561" lon="-3.620411"/>
      <trkpt lat="43.406341" lon="-3.624645"/>
      <trkpt lat="43.404840" lon="-3.627670"/>
      <trkpt lat="43.402938" lon="-3.630421"/>
      <trkpt lat="43.402346" lon="-3.631533"/>
      <trkpt lat="43.402052" lon="-3.632923"/>
      <trkpt lat="43.402108" lon="-3.636110"/>
      <trkpt lat="43.401428" lon="-3.639306"/>
      <trkpt lat="43.400526" lon="-3.641856"/>
      <trkpt lat="43.400182" lon="-3.643628"/>
      <trkpt lat="43.399013" lon="-3.647402"/>
      <trkpt lat="43.397926" lon="-3.649997"/>
      <trkpt lat="43.396964" lon="-3.650864"/>
      <trkpt lat="43.396692" lon="-3.650172"/>
      <trkpt lat="43.395747" lon="-3.649428"/>
      <trkpt lat="43.394978" lon="-3.649348"/>
      <trkpt lat="43.394563" lon="-3.649065"/>
      <trkpt lat="43.393844" lon="-3.648853"/>
      <trkpt lat="43.392896" lon="-3.649193"/>
      <trkpt lat="43.391479" lon="-3.648895"/>
      <trkpt lat="43.390678" lon="-3.647923"/>
      <trkpt lat="43.390283" lon="-3.646149"/>
      <trkpt lat="43.389702" lon="-3.645721"/>
      <trkpt lat="43.389729" lon="-3.645044"/>
      <trkpt lat="43.389593" lon="-3.644738"/>
      <trkpt lat="43.389469" lon="-3.644656"/>
      <trkpt lat="43.388808" lon="-3.644729"/>
      <trkpt lat="43.388402" lon="-3.644913"/>
      <trkpt lat="43.387842" lon="-3.644768"/>
      <trkpt lat="43.387174" lon="-3.644032"/>
      <trkpt lat="43.386929" lon="-3.643390"/>
      <trkpt lat="43.386478" lon="-3.642836"/>
      <trkpt lat="43.386010" lon="-3.642613"/>
      <trkpt lat="43.386022" lon="-3.642426"/>
      <trkpt lat="43.386597" lon="-3.642154"/>
      <trkpt lat="43.386089" lon="-3.641761"/>
      <trkpt lat="43.386091" lon="-3.641415"/>
      <trkpt lat="43.386594" lon="-3.641004"/>
      <trkpt lat="43.386968" lon="-3.640867"/>
      <trkpt lat="43.387039" lon="-3.640390"/>
      <trkpt lat="43.386888" lon="-3.640053"/>
      <trkpt lat="43.386642" lon="-3.640076"/>
      <trkpt lat="43.386132" lon="-3.639754"/>
      <trkpt lat="43.385750" lon="-3.639085"/>
      <trkpt lat="43.385283" lon="-3.638781"/>
      <trkpt lat="43.385161" lon="-3.638552"/>
      <trkpt lat="43.385038" lon="-3.638060"/>
      <trkpt lat="43.384784" lon="-3.633137"/>
      <trkpt lat="43.384465" lon="-3.632475"/>
      <trkpt lat="43.384401" lon="-3.631466"/>
      <trkpt lat="43.384500" lon="-3.630372"/>
      <trkpt lat="43.384384" lon="-3.629138"/>
      <trkpt lat="43.383542" lon="-3.625857"/>
      <trkpt lat="43.383207" lon="-3.625239"/>
      <trkpt lat="43.382444" lon="-3.624365"/>
      <trkpt lat="43.383964" lon="-3.624773"/>
      <trkpt lat="43.384085" lon="-3.624917"/>
      <trkpt lat="43.384535" lon="-3.626191"/>
      <trkpt lat="43.385775" lon="-3.627901"/>
      <trkpt lat="43.386220" lon="-3.629557"/>
      <trkpt lat="43.386646" lon="-3.630494"/>
      <trkpt lat="43.387198" lon="-3.631177"/>
      <trkpt lat="43.387697" lon="-3.631465"/>
      <trkpt lat="43.388345" lon="-3.632979"/>
      <trkpt lat="43.389048" lon="-3.633346"/>
      <trkpt lat="43.390025" lon="-3.633474"/>
      <trkpt lat="43.390375" lon="-3.632502"/>
      <trkpt lat="43.391171" lon="-3.631732"/>
      <trkpt lat="43.392202" lon="-3.631290"/>
      <trkpt lat="43.392964" lon="-3.631127"/>
      <trkpt lat="43.393433" lon="-3.630069"/>
      <trkpt lat="43.394405" lon="-3.628922"/>
      <trkpt lat="43.394678" lon="-3.628169"/>
      <trkpt lat="43.394835" lon="-3.628064"/>
      <trkpt lat="43.395252" lon="-3.628222"/>
      <trkpt lat="43.394835" lon="-3.628064"/>
      <trkpt lat="43.394678" lon="-3.628169"/>
      <trkpt lat="43.394405" lon="-3.628922"/>
      <trkpt lat="43.393433" lon="-3.630069"/>
      <trkpt lat="43.392964" lon="-3.631127"/>
      <trkpt lat="43.392202" lon="-3.631290"/>
      <trkpt lat="43.391171" lon="-3.631732"/>
      <trkpt lat="43.390375" lon="-3.632502"/>
      <trkpt lat="43.390025" lon="-3.633474"/>
      <trkpt lat="43.389048" lon="-3.633346"/>
      <trkpt lat="43.388345" lon="-3.632979"/>
      <trkpt lat="43.387697" lon="-3.631465"/>
      <trkpt lat="43.387198" lon="-3.631177"/>
      <trkpt lat="43.386646" lon="-3.630494"/>
      <trkpt lat="43.386220" lon="-3.629557"/>
      <trkpt lat="43.385775" lon="-3.627901"/>
      <trkpt lat="43.384664" lon="-3.626416"/>
      <trkpt lat="43.383964" lon="-3.624773"/>
      <trkpt lat="43.382805" lon="-3.624528"/>
      <trkpt lat="43.381815" lon="-3.623867"/>
      <trkpt lat="43.380906" lon="-3.623872"/>
      <trkpt lat="43.380282" lon="-3.625353"/>
      <trkpt lat="43.379185" lon="-3.626916"/>
      <trkpt lat="43.377975" lon="-3.626194"/>
      <trkpt lat="43.376990" lon="-3.627571"/>
      <trkpt lat="43.376550" lon="-3.627934"/>
      <trkpt lat="43.376144" lon="-3.627961"/>
      <trkpt lat="43.375536" lon="-3.626884"/>
      <trkpt lat="43.375147" lon="-3.626801"/>
      <trkpt lat="43.374875" lon="-3.626583"/>
      <trkpt lat="43.374040" lon="-3.627341"/>
      <trkpt lat="43.372808" lon="-3.627893"/>
      <trkpt lat="43.371749" lon="-3.629568"/>
      <trkpt lat="43.370167" lon="-3.630545"/>
      <trkpt lat="43.370002" lon="-3.630805"/>
      <trkpt lat="43.369994" lon="-3.631290"/>
      <trkpt lat="43.369049" lon="-3.630663"/>
      <trkpt lat="43.368705" lon="-3.630563"/>
      <trkpt lat="43.368524" lon="-3.630571"/>
      <trkpt lat="43.368101" lon="-3.631245"/>
      <trkpt lat="43.367933" lon="-3.631326"/>
      <trkpt lat="43.367353" lon="-3.631411"/>
      <trkpt lat="43.366698" lon="-3.631217"/>
      <trkpt lat="43.366410" lon="-3.630978"/>
      <trkpt lat="43.366169" lon="-3.631300"/>
      <trkpt lat="43.365992" lon="-3.631186"/>
      <trkpt lat="43.365594" lon="-3.631205"/>
      <trkpt lat="43.365431" lon="-3.630735"/>
      <trkpt lat="43.365252" lon="-3.630572"/>
      <trkpt lat="43.364230" lon="-3.631755"/>
      <trkpt lat="43.364057" lon="-3.633074"/>
      <trkpt lat="43.363470" lon="-3.633482"/>
      <trkpt lat="43.363344" lon="-3.633791"/>
      <trkpt lat="43.363648" lon="-3.636171"/>
      <trkpt lat="43.363586" lon="-3.637372"/>
      <trkpt lat="43.364029" lon="-3.638059"/>
      <trkpt lat="43.364588" lon="-3.638433"/>
      <trkpt lat="43.365134" lon="-3.639506"/>
      <trkpt lat="43.365144" lon="-3.640781"/>
      <trkpt lat="43.365877" lon="-3.642088"/>
      <trkpt lat="43.366120" lon="-3.643547"/>
      <trkpt lat="43.366790" lon="-3.644840"/>
      <trkpt lat="43.367485" lon="-3.645660"/>
      <trkpt lat="43.367554" lon="-3.646221"/>
      <trkpt lat="43.367174" lon="-3.647606"/>
      <trkpt lat="43.367328" lon="-3.647921"/>
      <trkpt lat="43.368212" lon="-3.648728"/>
      <trkpt lat="43.369031" lon="-3.650859"/>
      <trkpt lat="43.369271" lon="-3.651977"/>
      <trkpt lat="43.369776" lon="-3.652945"/>
      <trkpt lat="43.370743" lon="-3.655638"/>
      <trkpt lat="43.372222" lon="-3.661640"/>
      <trkpt lat="43.373028" lon="-3.663872"/>
      <trkpt lat="43.373039" lon="-3.664283"/>
      <trkpt lat="43.372657" lon="-3.665673"/>
      <trkpt lat="43.371689" lon="-3.667782"/>
      <trkpt lat="43.372731" lon="-3.671712"/>
      <trkpt lat="43.373073" lon="-3.671868"/>
      <trkpt lat="43.373576" lon="-3.671704"/>
      <trkpt lat="43.373661" lon="-3.671566"/>
      <trkpt lat="43.373464" lon="-3.670726"/>
      <trkpt lat="43.373694" lon="-3.670155"/>
      <trkpt lat="43.374872" lon="-3.668884"/>
      <trkpt lat="43.375308" lon="-3.667923"/>
      <trkpt lat="43.374872" lon="-3.668884"/>
      <trkpt lat="43.373694" lon="-3.670155"/>
      <trkpt lat="43.373456" lon="-3.670892"/>
      <trkpt lat="43.373661" lon="-3.671566"/>
      <trkpt lat="43.373972" lon="-3.671894"/>
      <trkpt lat="43.373859" lon="-3.672247"/>
      <trkpt lat="43.373935" lon="-3.672852"/>
      <trkpt lat="43.374223" lon="-3.673021"/>
      <trkpt lat="43.374641" lon="-3.673639"/>
      <trkpt lat="43.375085" lon="-3.674412"/>
      <trkpt lat="43.375374" lon="-3.675248"/>
      <trkpt lat="43.375770" lon="-3.677727"/>
      <trkpt lat="43.376559" lon="-3.680483"/>
      <trkpt lat="43.377446" lon="-3.681496"/>
      <trkpt lat="43.377587" lon="-3.681452"/>
      <trkpt lat="43.377603" lon="-3.681689"/>
      <trkpt lat="43.378946" lon="-3.683266"/>
      <trkpt lat="43.380972" lon="-3.687089"/>
      <trkpt lat="43.382229" lon="-3.688641"/>
      <trkpt lat="43.383103" lon="-3.689220"/>
      <trkpt lat="43.383368" lon="-3.689541"/>
      <trkpt lat="43.384091" lon="-3.691173"/>
      <trkpt lat="43.384629" lon="-3.693960"/>
      <trkpt lat="43.385325" lon="-3.696016"/>
      <trkpt lat="43.386324" lon="-3.696715"/>
      <trkpt lat="43.388778" lon="-3.700192"/>
      <trkpt lat="43.388986" lon="-3.700246"/>
      <trkpt lat="43.389312" lon="-3.700034"/>
      <trkpt lat="43.389671" lon="-3.700161"/>
      <trkpt lat="43.389693" lon="-3.700963"/>
      <trkpt lat="43.390843" lon="-3.706547"/>
      <trkpt lat="43.390787" lon="-3.706850"/>
      <trkpt lat="43.390484" lon="-3.707262"/>
      <trkpt lat="43.390220" lon="-3.708554"/>
      <trkpt lat="43.390296" lon="-3.711208"/>
      <trkpt lat="43.389455" lon="-3.714962"/>
      <trkpt lat="43.389509" lon="-3.716688"/>
      <trkpt lat="43.389839" lon="-3.718546"/>
      <trkpt lat="43.390964" lon="-3.718577"/>
      <trkpt lat="43.391442" lon="-3.719079"/>
      <trkpt lat="43.392127" lon="-3.718836"/>
      <trkpt lat="43.392724" lon="-3.719137"/>
      <trkpt lat="43.393371" lon="-3.718604"/>
      <trkpt lat="43.393868" lon="-3.718496"/>
      <trkpt lat="43.394247" lon="-3.718002"/>
      <trkpt lat="43.394705" lon="-3.718390"/>
      <trkpt lat="43.394910" lon="-3.718408"/>
      <trkpt lat="43.394967" lon="-3.717776"/>
      <trkpt lat="43.395283" lon="-3.717108"/>
      <trkpt lat="43.394967" lon="-3.717776"/>
      <trkpt lat="43.394910" lon="-3.718408"/>
      <trkpt lat="43.394705" lon="-3.718390"/>
      <trkpt lat="43.394247" lon="-3.718002"/>
      <trkpt lat="43.393868" lon="-3.718496"/>
      <trkpt lat="43.393371" lon="-3.718604"/>
      <trkpt lat="43.392724" lon="-3.719137"/>
      <trkpt lat="43.392127" lon="-3.718836"/>
      <trkpt lat="43.391442" lon="-3.719079"/>
      <trkpt lat="43.390964" lon="-3.718577"/>
      <trkpt lat="43.389839" lon="-3.718546"/>
      <trkpt lat="43.389713" lon="-3.719655"/>
      <trkpt lat="43.388812" lon="-3.721388"/>
      <trkpt lat="43.388946" lon="-3.723400"/>
      <trkpt lat="43.388729" lon="-3.724258"/>
      <trkpt lat="43.387516" lon="-3.725519"/>
      <trkpt lat="43.385604" lon="-3.728013"/>
      <trkpt lat="43.385478" lon="-3.728958"/>
      <trkpt lat="43.385660" lon="-3.731360"/>
      <trkpt lat="43.386146" lon="-3.731247"/>
      <trkpt lat="43.386787" lon="-3.731386"/>
      <trkpt lat="43.387803" lon="-3.730930"/>
      <trkpt lat="43.388562" lon="-3.731128"/>
      <trkpt lat="43.388850" lon="-3.731088"/>
      <trkpt lat="43.392830" lon="-3.730188"/>
      <trkpt lat="43.396218" lon="-3.731213"/>
      <trkpt lat="43.397592" lon="-3.733221"/>
      <trkpt lat="43.398131" lon="-3.734627"/>
      <trkpt lat="43.398474" lon="-3.735013"/>
      <trkpt lat="43.398965" lon="-3.735290"/>
      <trkpt lat="43.399777" lon="-3.736567"/>
      <trkpt lat="43.403761" lon="-3.737575"/>
      <trkpt lat="43.406596" lon="-3.741565"/>
      <trkpt lat="43.407421" lon="-3.742314"/>
      <trkpt lat="43.407826" lon="-3.742512"/>
      <trkpt lat="43.408049" lon="-3.743934"/>
      <trkpt lat="43.408027" lon="-3.744769"/>
      <trkpt lat="43.408226" lon="-3.744961"/>
      <trkpt lat="43.408321" lon="-3.745520"/>
      <trkpt lat="43.407812" lon="-3.746825"/>
      <trkpt lat="43.408066" lon="-3.746773"/>
      <trkpt lat="43.407924" lon="-3.747180"/>
      <trkpt lat="43.407938" lon="-3.747879"/>
      <trkpt lat="43.407666" lon="-3.749450"/>
      <trkpt lat="43.407737" lon="-3.749713"/>
      <trkpt lat="43.408384" lon="-3.750548"/>
      <trkpt lat="43.408692" lon="-3.750739"/>
      <trkpt lat="43.409269" lon="-3.750723"/>
      <trkpt lat="43.409948" lon="-3.751325"/>
      <trkpt lat="43.411023" lon="-3.751428"/>
      <trkpt lat="43.413230" lon="-3.751191"/>
      <trkpt lat="43.413505" lon="-3.750957"/>
      <trkpt lat="43.413487" lon="-3.750254"/>
      <trkpt lat="43.413677" lon="-3.749973"/>
      <trkpt lat="43.414179" lon="-3.750312"/>
      <trkpt lat="43.414744" lon="-3.750281"/>
      <trkpt lat="43.414907" lon="-3.751799"/>
      <trkpt lat="43.415207" lon="-3.753144"/>
      <trkpt lat="43.415779" lon="-3.753858"/>
      <trkpt lat="43.415962" lon="-3.753911"/>
      <trkpt lat="43.416561" lon="-3.753715"/>
      <trkpt lat="43.418050" lon="-3.754886"/>
      <trkpt lat="43.418521" lon="-3.756354"/>
      <trkpt lat="43.418558" lon="-3.756675"/>
      <trkpt lat="43.417084" lon="-3.758689"/>
      <trkpt lat="43.416406" lon="-3.760030"/>
      <trkpt lat="43.415922" lon="-3.760484"/>
      <trkpt lat="43.414892" lon="-3.761041"/>
      <trkpt lat="43.414411" lon="-3.761615"/>
      <trkpt lat="43.413656" lon="-3.763700"/>
      <trkpt lat="43.412592" lon="-3.767359"/>
      <trkpt lat="43.412369" lon="-3.767275"/>
      <trkpt lat="43.411764" lon="-3.765893"/>
      <trkpt lat="43.410977" lon="-3.765270"/>
      <trkpt lat="43.410593" lon="-3.765210"/>
      <trkpt lat="43.410267" lon="-3.765279"/>
      <trkpt lat="43.409164" lon="-3.766115"/>
      <trkpt lat="43.408515" lon="-3.766318"/>
      <trkpt lat="43.407883" lon="-3.766800"/>
      <trkpt lat="43.406700" lon="-3.767079"/>
      <trkpt lat="43.406381" lon="-3.766979"/>
      <trkpt lat="43.405600" lon="-3.765968"/>
      <trkpt lat="43.405503" lon="-3.764676"/>
      <trkpt lat="43.405278" lon="-3.763886"/>
      <trkpt lat="43.405055" lon="-3.763554"/>
      <trkpt lat="43.404683" lon="-3.763329"/>
      <trkpt lat="43.404253" lon="-3.763356"/>
      <trkpt lat="43.403350" lon="-3.763807"/>
      <trkpt lat="43.402168" lon="-3.763443"/>
      <trkpt lat="43.401840" lon="-3.763453"/>
      <trkpt lat="43.400771" lon="-3.763987"/>
      <trkpt lat="43.400597" lon="-3.764245"/>
      <trkpt lat="43.399905" lon="-3.767208"/>
      <trkpt lat="43.400646" lon="-3.772773"/>
      <trkpt lat="43.400676" lon="-3.774424"/>
      <trkpt lat="43.400429" lon="-3.777122"/>
      <trkpt lat="43.399936" lon="-3.779364"/>
      <trkpt lat="43.396656" lon="-3.790111"/>
      <trkpt lat="43.393926" lon="-3.804532"/>
      <trkpt lat="43.393721" lon="-3.806154"/>
      <trkpt lat="43.393772" lon="-3.807519"/>
      <trkpt lat="43.394242" lon="-3.811059"/>
      <trkpt lat="43.394497" lon="-3.812058"/>
      <trkpt lat="43.394877" lon="-3.812857"/>
      <trkpt lat="43.395488" lon="-3.813598"/>
      <trkpt lat="43.396264" lon="-3.814110"/>
      <trkpt lat="43.398461" lon="-3.814887"/>
      <trkpt lat="43.398694" lon="-3.814672"/>
      <trkpt lat="43.397619" lon="-3.814163"/>
      <trkpt lat="43.397321" lon="-3.814147"/>
      <trkpt lat="43.395278" lon="-3.814913"/>
      <trkpt lat="43.394602" lon="-3.815263"/>
      <trkpt lat="43.394460" lon="-3.815487"/>
      <trkpt lat="43.395232" lon="-3.816374"/>
      <trkpt lat="43.397098" lon="-3.819552"/>
      <trkpt lat="43.397321" lon="-3.819729"/>
      <trkpt lat="43.397994" lon="-3.821083"/>
      <trkpt lat="43.398395" lon="-3.821407"/>
      <trkpt lat="43.398790" lon="-3.822186"/>
      <trkpt lat="43.399564" lon="-3.823001"/>
      <trkpt lat="43.400828" lon="-3.825181"/>
      <trkpt lat="43.400817" lon="-3.825541"/>
      <trkpt lat="43.401112" lon="-3.826525"/>
      <trkpt lat="43.402196" lon="-3.828110"/>
      <trkpt lat="43.403073" lon="-3.829850"/>
      <trkpt lat="43.403603" lon="-3.829538"/>
      <trkpt lat="43.403870" lon="-3.829931"/>
      <trkpt lat="43.404109" lon="-3.829816"/>
      <trkpt lat="43.403870" lon="-3.829931"/>
      <trkpt lat="43.403603" lon="-3.829538"/>
      <trkpt lat="43.403073" lon="-3.829850"/>
      <trkpt lat="43.403178" lon="-3.830483"/>
      <trkpt lat="43.403279" lon="-3.830810"/>
      <trkpt lat="43.404221" lon="-3.832223"/>
      <trkpt lat="43.404913" lon="-3.836428"/>
      <trkpt lat="43.404981" lon="-3.836716"/>
      <trkpt lat="43.405315" lon="-3.837102"/>
      <trkpt lat="43.405323" lon="-3.837782"/>
      <trkpt lat="43.405582" lon="-3.838289"/>
      <trkpt lat="43.406269" lon="-3.839125"/>
      <trkpt lat="43.409071" lon="-3.840882"/>
      <trkpt lat="43.409120" lon="-3.839992"/>
      <trkpt lat="43.409071" lon="-3.840882"/>
      <trkpt lat="43.406269" lon="-3.839125"/>
      <trkpt lat="43.405705" lon="-3.838636"/>
      <trkpt lat="43.405323" lon="-3.837782"/>
      <trkpt lat="43.404948" lon="-3.837440"/>
      <trkpt lat="43.405075" lon="-3.837000"/>
      <trkpt lat="43.406132" lon="-3.837260"/>
      <trkpt lat="43.407579" lon="-3.837847"/>
      <trkpt lat="43.408194" lon="-3.837888"/>
      <trkpt lat="43.408823" lon="-3.837751"/>
      <trkpt lat="43.409411" lon="-3.837427"/>
      <trkpt lat="43.409935" lon="-3.836945"/>
      <trkpt lat="43.410592" lon="-3.836078"/>
      <trkpt lat="43.410709" lon="-3.835578"/>
      <trkpt lat="43.411112" lon="-3.835352"/>
      <trkpt lat="43.411745" lon="-3.834316"/>
      <trkpt lat="43.411904" lon="-3.834668"/>
      <trkpt lat="43.412484" lon="-3.835191"/>
      <trkpt lat="43.412553" lon="-3.835963"/>
      <trkpt lat="43.413191" lon="-3.836653"/>
      <trkpt lat="43.416296" lon="-3.839426"/>
      <trkpt lat="43.417142" lon="-3.839983"/>
      <trkpt lat="43.417956" lon="-3.840177"/>
      <trkpt lat="43.418505" lon="-3.840071"/>
      <trkpt lat="43.419219" lon="-3.839580"/>
      <trkpt lat="43.422274" lon="-3.835733"/>
      <trkpt lat="43.423262" lon="-3.835150"/>
      <trkpt lat="43.425039" lon="-3.835270"/>
      <trkpt lat="43.432502" lon="-3.836871"/>
      <trkpt lat="43.435779" lon="-3.837273"/>
      <trkpt lat="43.437381" lon="-3.837194"/>
      <trkpt lat="43.439319" lon="-3.836774"/>
      <trkpt lat="43.442574" lon="-3.835431"/>
      <trkpt lat="43.443261" lon="-3.834961"/>
      <trkpt lat="43.450462" lon="-3.829667"/>
      <trkpt lat="43.451087" lon="-3.828923"/>
      <trkpt lat="43.452626" lon="-3.823810"/>
      <trkpt lat="43.456048" lon="-3.811039"/>
      <trkpt lat="43.457566" lon="-3.809659"/>
      <trkpt lat="43.458683" lon="-3.808254"/>
      <trkpt lat="43.461224" lon="-3.809490"/>
      <trkpt lat="43.462260" lon="-3.809546"/>
    </trkseg>
  </trk>
</gpx>
